{"type":"FeatureCollection", "features": [
{"type":"Feature","geometry":{"type":"Polygon","coordinates":[[[73.5112,42.8519],[73.504,42.8764],[73.5045,42.8862],[73.4942,42.8944],[73.499,42.9083],[73.4959,42.9191],[73.5091,42.9314],[73.5344,42.9442],[73.5486,42.9668],[73.5385,42.9753],[73.5397,42.9923],[73.5353,43.0071],[73.5416,43.0214],[73.5498,43.0284],[73.6203,43.0503],[73.6374,43.0585],[73.6922,43.0736],[73.7447,43.0964],[73.7634,43.1067],[73.7946,43.1129],[73.8254,43.1283],[73.8381,43.1177],[73.8594,43.1165],[73.9055,43.1097],[73.9212,43.1306],[73.9282,43.1464],[73.9467,43.1622],[73.9595,43.2006],[73.9549,43.2102],[73.9705,43.2228],[74.0136,43.1947],[74.0422,43.1721],[74.0611,43.1821],[74.0766,43.1868],[74.1701,43.1988],[74.2108,43.1959],[74.222,43.2052],[74.1927,43.2555],[74.2042,43.2669],[74.2305,43.2519],[74.2497,43.2547],[74.2637,43.2436],[74.2829,43.2465],[74.2938,43.2419],[74.3084,43.2163],[74.3405,43.2115],[74.3593,43.1975],[74.3846,43.1974],[74.4047,43.1884],[74.4161,43.1703],[74.4277,43.1681],[74.4538,43.1574],[74.4749,43.153],[74.4962,43.1574],[74.5141,43.1439],[74.5539,43.1373],[74.5647,43.1309],[74.5773,43.1329],[74.5869,43.1161],[74.6011,43.1084],[74.6154,43.0851],[74.6334,43.0804],[74.6439,43.0598],[74.6636,43.0524],[74.6718,43.0415],[74.6945,43.0377],[74.7094,43.0201],[74.7271,43.0047],[74.7517,42.9898],[74.7743,42.9931],[74.7848,43.0017],[74.8267,42.9999],[74.8323,43.0039],[74.8533,42.9999],[74.8726,42.9887],[74.8964,42.9804],[74.9058,42.9717],[74.9164,42.9716],[74.9605,42.9536],[74.9754,42.9446],[74.9959,42.9418],[75.0086,42.9323],[75.0229,42.929],[75.0369,42.9206],[75.0515,42.9229],[75.0718,42.913],[75.0819,42.9144],[75.1369,42.8854],[75.1707,42.8766],[75.1909,42.8751],[75.1972,42.8652],[75.2313,42.8536],[75.2618,42.8607],[75.2851,42.8585],[75.2974,42.8612],[75.3067,42.8564],[75.3364,42.8555],[75.3578,42.8481],[75.3682,42.8508],[75.419,42.8396],[75.4398,42.8411],[75.4551,42.8361],[75.4682,42.8362],[75.4825,42.8434],[75.518,42.8345],[75.5523,42.8299],[75.5703,42.8305],[75.6511,42.8116],[75.674,42.8043],[75.7168,42.7973],[75.7614,42.8335],[75.7724,42.8541],[75.7863,42.8992],[75.8012,42.9178],[75.8233,42.9387],[75.8355,42.9368],[75.848,42.9423],[75.896,42.9446],[75.9159,42.9491],[75.9263,42.9557],[75.9372,42.9557],[75.95,42.9455],[75.956,42.9338],[75.9651,42.9299],[75.9831,42.93],[76.0082,42.9252],[76.0283,42.911],[76.0445,42.9163],[76.0618,42.9161],[76.0701,42.9217],[76.0882,42.918],[76.0972,42.9234],[76.1175,42.9228],[76.1953,42.9308],[76.2003,42.9166],[76.2381,42.9217],[76.265,42.9192],[76.3014,42.9113],[76.309,42.9008],[76.3,42.8882],[76.3039,42.8744],[76.324,42.8719],[76.3285,42.8636],[76.3438,42.8608],[76.3607,42.8672],[76.3696,42.8657],[76.3895,42.8753],[76.4186,42.8734],[76.4479,42.8836],[76.4859,42.8883],[76.4928,42.9033],[76.503,42.9059],[76.504,42.9184],[76.522,42.9215],[76.5405,42.9169],[76.5495,42.9098],[76.5746,42.9063],[76.5938,42.9089],[76.6014,42.9156],[76.629,42.9058],[76.6475,42.9109],[76.6617,42.9077],[76.6761,42.9096],[76.7089,42.9042],[76.736,42.9178],[76.7493,42.9218],[76.7555,42.9344],[76.7486,42.9422],[76.7553,42.95],[76.7805,42.9565],[76.7987,42.9476],[76.8227,42.9551],[76.8369,42.972],[76.8352,42.982],[76.8753,42.9712],[76.8823,42.9767],[76.9116,42.9714],[76.9187,42.9661],[76.9339,42.9711],[76.9412,42.982],[76.9574,42.9788],[76.9716,42.987],[76.9848,42.9816],[77.0041,42.9833],[77.0137,42.9642],[77.0265,42.9528],[77.0393,42.9475],[77.0604,42.9655],[77.0617,42.9771],[77.0848,42.9813],[77.1035,42.9745],[77.1156,42.9757],[77.1245,42.9698],[77.137,42.9735],[77.1536,42.9727],[77.1571,42.9434],[77.1822,42.944],[77.195,42.9398],[77.2124,42.9278],[77.2243,42.9279],[77.2222,42.9167],[77.2472,42.9096],[77.2697,42.9135],[77.296,42.9076],[77.2965,42.9158],[77.3229,42.9135],[77.3501,42.8999],[77.3907,42.9139],[77.4047,42.9229],[77.4224,42.9288],[77.4365,42.9253],[77.4596,42.9305],[77.4764,42.9383],[77.4813,42.9259],[77.4971,42.9251],[77.5203,42.9292],[77.5265,42.9363],[77.5499,42.9395],[77.5594,42.929],[77.576,42.9243],[77.5803,42.9163],[77.602,42.9174],[77.6132,42.9141],[77.6226,42.9195],[77.6476,42.9161],[77.6581,42.9115],[77.6704,42.918],[77.6879,42.9122],[77.697,42.9039],[77.721,42.9097],[77.7302,42.9045],[77.7466,42.9093],[77.7623,42.9057],[77.7795,42.9148],[77.8107,42.9023],[77.8167,42.8873],[77.8417,42.8825],[77.8687,42.8879],[77.8891,42.8793],[77.8994,42.8785],[77.9111,42.8707],[77.9341,42.8817],[77.9408,42.8762],[77.9431,42.86],[77.9676,42.8509],[78.0015,42.8627],[78.0022,42.8707],[78.0244,42.8644],[78.0342,42.8654],[78.0566,42.848],[78.0696,42.8516],[78.0918,42.8494],[78.1056,42.86],[78.1207,42.8608],[78.1496,42.8576],[78.1715,42.8603],[78.177,42.8739],[78.1974,42.8824],[78.2096,42.8714],[78.2226,42.8774],[78.2475,42.8716],[78.2573,42.8735],[78.307,42.8572],[78.3503,42.8552],[78.3624,42.8633],[78.37,42.8867],[78.3783,42.8893],[78.3901,42.881],[78.4107,42.877],[78.4347,42.8798],[78.4419,42.8876],[78.4543,42.8867],[78.4642,42.8964],[78.4778,42.8931],[78.498,42.9003],[78.5052,42.8914],[78.5212,42.8889],[78.536,42.8814],[78.5407,42.8696],[78.5758,42.8625],[78.5889,42.8476],[78.6128,42.855],[78.6251,42.8464],[78.6468,42.8402],[78.6481,42.8268],[78.6639,42.8154],[78.6943,42.8143],[78.7101,42.8261],[78.7306,42.8196],[78.7549,42.8191],[78.7733,42.8154],[78.7866,42.8006],[78.8008,42.81],[78.8294,42.8049],[78.852,42.795],[78.8657,42.8007],[78.8904,42.7895],[78.9047,42.7889],[78.9298,42.7748],[78.9495,42.7769],[78.9664,42.7825],[78.9878,42.7759],[79.02,42.7784],[79.0292,42.7626],[79.0442,42.7628],[79.0567,42.7755],[79.0693,42.7766],[79.0944,42.787],[79.1061,42.7821],[79.1495,42.7955],[79.1998,42.8045],[79.1945,42.7807],[79.1721,42.755],[79.1706,42.7291],[79.1821,42.7064],[79.182,42.6975],[79.2166,42.6561],[79.2409,42.6383],[79.252,42.6351],[79.2597,42.6259],[79.2711,42.6217],[79.2985,42.6201],[79.319,42.6022],[79.3442,42.6048],[79.3793,42.5789],[79.3817,42.5667],[79.3991,42.5503],[79.423,42.539],[79.4288,42.5181],[79.4496,42.5116],[79.4518,42.5012],[79.4773,42.4932],[79.4995,42.4753],[79.5049,42.4599],[79.5292,42.4569],[79.5636,42.4574],[79.572,42.4597],[79.5952,42.4545],[79.6144,42.4585],[79.6373,42.4535],[79.642,42.465],[79.6533,42.4754],[79.6733,42.4801],[79.6968,42.4793],[79.7036,42.4705],[79.7234,42.4707],[79.7482,42.464],[79.7494,42.4526],[79.7713,42.456],[79.7873,42.4469],[79.8063,42.4483],[79.8244,42.4425],[79.8567,42.4466],[79.8685,42.4373],[79.8782,42.441],[79.8986,42.438],[79.9196,42.4434],[79.9254,42.4367],[79.9681,42.4322],[79.9646,42.4262],[79.9715,42.41],[79.9681,42.4035],[79.9802,42.3797],[80.0005,42.3779],[80.0013,42.3647],[80.013,42.3598],[80.0189,42.3482],[80.0303,42.3429],[80.0817,42.3394],[80.0793,42.3257],[80.0925,42.3169],[80.1086,42.3151],[80.1258,42.3034],[80.1425,42.2859],[80.1182,42.2764],[80.175,42.2108],[80.1933,42.2265],[80.2155,42.2272],[80.2285,42.2167],[80.2453,42.2179],[80.2668,42.2252],[80.283,42.2349],[80.2801,42.2484],[80.2872,42.2666],[80.2782,42.281],[80.2685,42.2824],[80.2596,42.2924],[80.2602,42.3045],[80.2794,42.3236],[80.2636,42.3284],[80.2376,42.3405],[80.2264,42.3674],[80.2377,42.3801],[80.2391,42.3877],[80.2274,42.3975],[80.2329,42.4043],[80.2142,42.4125],[80.2148,42.4237],[80.2045,42.4287],[80.2107,42.4381],[80.2129,42.4533],[80.2077,42.4699],[80.2352,42.491],[80.2482,42.4926],[80.2668,42.5032],[80.2711,42.5121],[80.252,42.5134],[80.2489,42.5239],[80.2206,42.5329],[80.1921,42.5671],[80.1782,42.5922],[80.178,42.6036],[80.1627,42.6249],[80.1684,42.6483],[80.1746,42.6554],[80.1767,42.6714],[80.2036,42.6881],[80.2268,42.6935],[80.223,42.713],[80.2548,42.784],[80.2616,42.8258],[80.2773,42.838],[80.3014,42.8325],[80.3202,42.8371],[80.329,42.8276],[80.3781,42.8308],[80.3902,42.8389],[80.4013,42.8329],[80.4146,42.8371],[80.4233,42.8452],[80.4269,42.8565],[80.439,42.8526],[80.4459,42.8613],[80.4605,42.8554],[80.4863,42.8728],[80.5096,42.878],[80.5272,42.878],[80.5612,42.8867],[80.5712,42.895],[80.598,42.895],[80.5917,42.9132],[80.5731,42.9202],[80.5569,42.9306],[80.5396,42.9359],[80.5072,42.9392],[80.4853,42.9448],[80.475,42.9516],[80.4411,42.9658],[80.4148,42.9857],[80.4027,42.9903],[80.3878,43.0029],[80.3806,43.0194],[80.3842,43.0459],[80.3935,43.0535],[80.4144,43.0577],[80.4433,43.0679],[80.4586,43.0757],[80.485,43.0704],[80.5091,43.0847],[80.5187,43.0869],[80.5356,43.0985],[80.5558,43.1019],[80.5605,43.1157],[80.5723,43.1189],[80.5866,43.1364],[80.6025,43.1352],[80.6084,43.1421],[80.6269,43.1403],[80.6575,43.1499],[80.6713,43.1438],[80.6987,43.1431],[80.7152,43.1345],[80.7239,43.1342],[80.7416,43.1467],[80.7668,43.1456],[80.7813,43.1378],[80.7972,43.1658],[80.8073,43.1773],[80.7974,43.1842],[80.7828,43.2154],[80.7866,43.2361],[80.7652,43.2668],[80.7741,43.2792],[80.771,43.2902],[80.7785,43.312],[80.7523,43.319],[80.6983,43.3163],[80.6821,43.3279],[80.6852,43.3371],[80.7049,43.3531],[80.7047,43.3644],[80.7244,43.3773],[80.7349,43.3929],[80.7335,43.4191],[80.7359,43.4351],[80.7554,43.4462],[80.749,43.4725],[80.6905,43.5741],[80.6702,43.6038],[80.5227,43.8221],[80.5247,43.8356],[80.5181,43.8632],[80.5061,43.8701],[80.5126,43.8823],[80.5078,43.907],[80.4928,43.9151],[80.4838,43.93],[80.4729,43.9381],[80.4828,43.9567],[80.4626,43.9719],[80.4515,43.9889],[80.4493,44.0156],[80.4544,44.019],[80.4534,44.0443],[80.4481,44.0503],[80.4454,44.0708],[80.4359,44.0815],[80.3962,44.1101],[80.3954,44.1177],[80.4027,44.1405],[80.3956,44.1943],[80.4007,44.2134],[80.4065,44.2493],[80.4032,44.2713],[80.4035,44.2907],[80.3914,44.3141],[80.3844,44.376],[80.3788,44.3861],[80.3776,44.41],[80.3662,44.4409],[80.3503,44.4593],[80.3468,44.4826],[80.3594,44.4939],[80.3706,44.5123],[80.3679,44.5253],[80.3767,44.5371],[80.3801,44.5535],[80.3932,44.5676],[80.3909,44.5907],[80.4105,44.6088],[80.3967,44.6286],[80.3842,44.6352],[80.3679,44.6546],[80.3488,44.6673],[80.337,44.6892],[80.3112,44.7039],[80.242,44.7215],[80.2205,44.7292],[80.1922,44.7523],[80.1977,44.7606],[80.1762,44.7853],[80.1734,44.794],[80.1802,44.803],[80.1832,44.8235],[80.1671,44.8275],[80.1651,44.8405],[80.1568,44.8416],[80.1462,44.8267],[80.1278,44.8231],[80.1142,44.8098],[80.0961,44.8136],[80.0594,44.8078],[80.0451,44.8006],[80.034,44.8041],[80.0063,44.7902],[79.9954,44.7921],[79.9996,44.816],[79.959,44.8437],[79.9447,44.85],[79.9461,44.8663],[79.9542,44.8734],[79.9533,44.882],[79.9322,44.8875],[79.9147,44.9007],[79.8886,44.9025],[79.882,44.9107],[79.9027,44.9245],[79.935,44.9329],[79.9475,44.944],[79.9557,44.9614],[79.9857,44.969],[79.9888,44.9786],[80.013,44.9802],[80.0185,44.9903],[80.0567,45.0141],[80.0618,45.036],[80.0714,45.0334],[80.0912,45.0375],[80.0897,45.0467],[80.118,45.0413],[80.1286,45.043],[80.1386,45.0523],[80.1524,45.0527],[80.1679,45.0388],[80.178,45.0416],[80.1916,45.0284],[80.2021,45.03],[80.2135,45.0233],[80.2325,45.0332],[80.2403,45.0277],[80.2667,45.0536],[80.2934,45.0665],[80.3254,45.0696],[80.3307,45.0548],[80.3449,45.0411],[80.3821,45.04],[80.4033,45.0476],[80.4073,45.0577],[80.4196,45.0619],[80.4379,45.075],[80.4434,45.0872],[80.4374,45.0972],[80.4627,45.1126],[80.4769,45.1138],[80.4889,45.1265],[80.509,45.1069],[80.5174,45.1056],[80.5471,45.1109],[80.5758,45.1102],[80.6009,45.1046],[80.6144,45.1085],[80.6243,45.1178],[80.6552,45.1213],[80.6979,45.1335],[80.7048,45.1434],[80.7245,45.1503],[80.7164,45.1698],[80.728,45.1712],[80.7398,45.1617],[80.7631,45.1517],[80.7726,45.1439],[80.787,45.1501],[80.8352,45.1396],[80.8495,45.1277],[80.8594,45.1254],[80.8754,45.13],[80.8983,45.1251],[80.9066,45.137],[80.9214,45.1452],[80.9296,45.1577],[80.9569,45.1676],[80.9966,45.1583],[81.0162,45.1645],[81.0247,45.1635],[81.0438,45.1701],[81.0554,45.1778],[81.0698,45.1723],[81.0835,45.1946],[81.0995,45.1996],[81.1196,45.2152],[81.1335,45.2176],[81.1369,45.21],[81.1558,45.2052],[81.1698,45.2128],[81.1665,45.2243],[81.1814,45.227],[81.2035,45.2368],[81.2385,45.2406],[81.2593,45.2367],[81.2819,45.2394],[81.3071,45.2541],[81.3608,45.2605],[81.3782,45.2538],[81.3821,45.2642],[81.4077,45.2805],[81.435,45.2795],[81.4373,45.268],[81.4518,45.2622],[81.4786,45.2742],[81.4942,45.2753],[81.4986,45.2813],[81.5215,45.2825],[81.5347,45.3059],[81.548,45.3015],[81.5743,45.3088],[81.5688,45.3253],[81.5869,45.3323],[81.5921,45.3405],[81.6127,45.3419],[81.6194,45.3516],[81.6324,45.3566],[81.6503,45.3505],[81.6783,45.3562],[81.6794,45.3645],[81.6952,45.3692],[81.7137,45.3589],[81.7337,45.3657],[81.7371,45.373],[81.7586,45.3722],[81.7741,45.3861],[81.785,45.3798],[81.8084,45.358],[81.8086,45.3517],[81.8311,45.3274],[81.8301,45.3181],[81.8554,45.2952],[81.8787,45.2837],[81.9093,45.2431],[81.922,45.2289],[81.9418,45.2362],[81.9707,45.2339],[81.9782,45.2381],[81.9967,45.2324],[82.0092,45.2336],[82.0391,45.2457],[82.0443,45.2542],[82.065,45.2465],[82.088,45.2429],[82.0818,45.2229],[82.1001,45.2023],[82.1126,45.2017],[82.1239,45.2109],[82.1512,45.2218],[82.1721,45.2213],[82.1852,45.2288],[82.2013,45.2291],[82.2331,45.235],[82.2574,45.2339],[82.2677,45.2413],[82.3061,45.2346],[82.3109,45.2269],[82.3407,45.2091],[82.3626,45.2011],[82.3837,45.1996],[82.3977,45.193],[82.4165,45.1923],[82.4282,45.1877],[82.4558,45.1873],[82.4749,45.177],[82.5601,45.2035],[82.582,45.2215],[82.5877,45.3447],[82.5428,45.421],[82.4377,45.4597],[82.28,45.5351],[82.2708,45.5505],[82.2588,45.6165],[82.2758,45.6321],[82.2846,45.6613],[82.2824,45.6834],[82.2881,45.7088],[82.2991,45.7196],[82.3103,45.738],[82.3186,45.7641],[82.3376,45.7808],[82.3451,45.7957],[82.3428,45.8113],[82.3454,45.839],[82.3385,45.8502],[82.33,45.8869],[82.3407,45.9081],[82.3357,45.9392],[82.3757,45.9641],[82.4104,45.9691],[82.4265,45.9674],[82.4561,45.9772],[82.4811,46.0599],[82.5119,46.1546],[82.5517,46.214],[82.5634,46.2339],[82.608,46.2984],[82.6546,46.3774],[82.706,46.46],[82.7249,46.4917],[82.7682,46.6038],[82.7821,46.6689],[82.7933,46.7005],[82.8295,46.7774],[82.8685,46.7991],[82.8692,46.83],[82.9145,46.9339],[82.9222,46.9403],[82.925,46.9632],[82.9324,46.972],[82.9296,46.9906],[82.9381,47.0161],[82.952,47.0204],[82.9654,47.0341],[82.969,47.049],[82.9931,47.0644],[83.0032,47.1018],[83.0104,47.1144],[83.0031,47.1208],[83.0181,47.1304],[83.0123,47.1472],[83.0281,47.162],[83.0296,47.1739],[83.024,47.187],[83.0279,47.2068],[83.0516,47.2253],[83.0848,47.228],[83.0922,47.2238],[83.1302,47.2331],[83.1509,47.2347],[83.1737,47.2204],[83.1909,47.2194],[83.2086,47.2094],[83.2069,47.1989],[83.2149,47.1907],[83.2365,47.1891],[83.2393,47.1792],[83.2798,47.1752],[83.2885,47.182],[83.3181,47.1714],[83.3366,47.1702],[83.354,47.1746],[83.3653,47.163],[83.3878,47.1484],[83.3881,47.1418],[83.4073,47.1284],[83.4135,47.116],[83.4288,47.1145],[83.4299,47.1232],[83.4575,47.1321],[83.4631,47.1213],[83.4803,47.1177],[83.4863,47.1092],[83.5089,47.1075],[83.525,47.0852],[83.566,47.0781],[83.5602,47.06],[83.578,47.0605],[83.6039,47.0546],[83.6134,47.0486],[83.6555,47.0417],[83.6802,47.0352],[83.6956,47.0358],[83.701,47.0227],[83.7327,47.0276],[83.7402,47.0331],[83.758,47.0242],[83.7835,47.0243],[83.7937,47.0169],[83.8123,47.0164],[83.8321,47.0086],[83.8345,46.9969],[83.8708,46.995],[83.872,46.9868],[83.8904,46.9883],[83.9173,46.9729],[83.9262,46.9847],[83.9457,46.9907],[83.9675,46.984],[83.9847,46.9953],[84.0075,46.9893],[84.0256,46.9789],[84.0565,46.9687],[84.1264,46.9674],[84.1522,46.9804],[84.1654,46.9939],[84.2011,47.0023],[84.2262,46.9972],[84.2474,46.9988],[84.2585,47.003],[84.2864,47.0023],[84.2991,46.9954],[84.3295,47.0029],[84.3792,46.996],[84.436,47.009],[84.4572,47.0061],[84.4603,46.9933],[84.4843,46.9926],[84.5066,46.9756],[84.5131,46.9794],[84.5411,46.9839],[84.5521,46.992],[84.5794,46.9996],[84.622,46.9984],[84.6305,46.9947],[84.6791,47.0046],[84.6927,47.004],[84.7097,47.0095],[84.7185,47.0057],[84.7592,47.0047],[84.7767,46.9894],[84.7807,46.9767],[84.8105,46.9608],[84.8275,46.9598],[84.8473,46.9538],[84.8612,46.9441],[84.858,46.9283],[84.881,46.9097],[84.8955,46.9047],[84.9131,46.8911],[84.9152,46.8804],[84.9442,46.8629],[84.9783,46.8722],[84.9829,46.9151],[85.0061,46.9265],[85.0336,46.9217],[85.0783,46.9312],[85.0852,46.9496],[85.0956,46.9642],[85.1187,46.9698],[85.1455,46.9893],[85.1668,46.9866],[85.176,46.9922],[85.1759,47.0008],[85.1941,47.0126],[85.2169,47.0524],[85.2338,47.0492],[85.2408,47.0537],[85.2615,47.0499],[85.2754,47.0572],[85.2773,47.0658],[85.2994,47.065],[85.3061,47.0518],[85.3235,47.0429],[85.3396,47.0481],[85.3419,47.0541],[85.3656,47.0526],[85.3824,47.046],[85.4059,47.0517],[85.4125,47.06],[85.4509,47.0602],[85.4604,47.064],[85.4811,47.0531],[85.5053,47.0562],[85.5294,47.0516],[85.5376,47.057],[85.5329,47.0675],[85.5444,47.0796],[85.5414,47.0933],[85.5583,47.1164],[85.5743,47.1258],[85.5767,47.1377],[85.5932,47.1517],[85.6399,47.184],[85.6499,47.2056],[85.6823,47.2228],[85.6877,47.2451],[85.6806,47.248],[85.6921,47.2658],[85.6987,47.288],[85.6743,47.3121],[85.6752,47.3229],[85.6867,47.3333],[85.6868,47.3616],[85.6966,47.3657],[85.703,47.3801],[85.6879,47.3924],[85.6803,47.4341],[85.6659,47.4495],[85.6499,47.4532],[85.6393,47.4641],[85.6265,47.4853],[85.6141,47.4938],[85.6079,47.5097],[85.6088,47.5309],[85.6143,47.5401],[85.5977,47.6433],[85.5794,47.7719],[85.5474,47.9822],[85.5373,47.992],[85.5428,48.0094],[85.5395,48.0206],[85.5298,48.0245],[85.5301,48.0446],[85.5418,48.0532],[85.5425,48.0625],[85.5351,48.0717],[85.5475,48.0788],[85.5433,48.0982],[85.5532,48.1078],[85.5492,48.1268],[85.5593,48.149],[85.5813,48.1675],[85.5936,48.1962],[85.6228,48.2101],[85.6327,48.2335],[85.6594,48.2418],[85.6629,48.2549],[85.6755,48.2641],[85.6812,48.275],[85.6823,48.2919],[85.6945,48.3007],[85.6899,48.3216],[85.7102,48.3536],[85.7254,48.3729],[85.7525,48.3909],[85.7559,48.403],[85.7655,48.4047],[85.7874,48.4175],[85.8058,48.4157],[85.8207,48.4189],[85.8375,48.4275],[85.8669,48.4317],[85.8729,48.4289],[85.8979,48.4308],[85.9117,48.4362],[86.0533,48.4389],[86.2323,48.4322],[86.2575,48.4542],[86.2677,48.4516],[86.2814,48.464],[86.2827,48.4723],[86.2969,48.477],[86.3007,48.4905],[86.3214,48.4881],[86.3445,48.4929],[86.359,48.4907],[86.3783,48.4938],[86.3901,48.4901],[86.3954,48.4817],[86.407,48.4787],[86.5808,48.5391],[86.5922,48.5449],[86.5945,48.567],[86.6014,48.5845],[86.6119,48.5971],[86.6281,48.6039],[86.6343,48.6127],[86.6356,48.6268],[86.6767,48.6336],[86.6918,48.6432],[86.701,48.6693],[86.7262,48.6833],[86.7399,48.6982],[86.7731,48.7206],[86.7777,48.736],[86.7735,48.7501],[86.7513,48.7777],[86.7608,48.8041],[86.7808,48.8122],[86.817,48.8305],[86.8163,48.8566],[86.7969,48.8703],[86.7836,48.8753],[86.7785,48.8864],[86.7565,48.8939],[86.7354,48.9235],[86.7271,48.9506],[86.7313,48.9708],[86.7264,48.9794],[86.7293,48.9944],[86.7492,49.0145],[86.7809,49.0273],[86.7953,49.0392],[86.8299,49.0493],[86.8475,49.0653],[86.8421,49.0931],[86.8528,49.1106],[86.8757,49.1224],[86.8872,49.1326],[86.9075,49.1354],[86.9369,49.1308],[86.9688,49.1334],[86.9961,49.1426],[87.0183,49.1398],[87.0563,49.1293],[87.0672,49.1354],[87.0825,49.1311],[87.1006,49.1401],[87.1041,49.1511],[87.1253,49.1526],[87.15,49.1508],[87.1687,49.1389],[87.1992,49.1432],[87.2158,49.1284],[87.2141,49.1225],[87.228,49.1153],[87.2535,49.1117],[87.2834,49.116],[87.2972,49.1337],[87.2994,49.1491],[87.29,49.156],[87.3027,49.1696],[87.3015,49.1826],[87.2927,49.1901],[87.2916,49.2018],[87.3156,49.2311],[87.3042,49.2352],[87.2693,49.2326],[87.2553,49.2402],[87.1983,49.2525],[87.1742,49.2467],[87.167,49.2501],[87.1403,49.2461],[87.1283,49.2561],[87.0952,49.2522],[87.0645,49.2548],[87.0369,49.2508],[87.0253,49.2573],[87.006,49.2989],[86.9821,49.3009],[86.9641,49.3117],[86.9627,49.3254],[86.9531,49.336],[86.9265,49.3489],[86.9247,49.3698],[86.9368,49.3689],[86.9492,49.3799],[86.9364,49.398],[86.9478,49.4064],[86.9301,49.4201],[86.9144,49.4166],[86.9065,49.4276],[86.8683,49.4348],[86.8511,49.4446],[86.831,49.4698],[86.8297,49.4817],[86.8554,49.4993],[86.851,49.5106],[86.8186,49.5273],[86.8272,49.5454],[86.7902,49.5528],[86.7395,49.5712],[86.7104,49.5681],[86.6824,49.5691],[86.6659,49.5603],[86.6296,49.5657],[86.6182,49.5704],[86.6025,49.6056],[86.6155,49.6285],[86.6357,49.6319],[86.6592,49.6438],[86.6533,49.6525],[86.6657,49.6655],[86.6819,49.6687],[86.7095,49.6873],[86.7198,49.6781],[86.7294,49.6782],[86.7384,49.6884],[86.7677,49.6891],[86.7789,49.696],[86.7663,49.7249],[86.753,49.7424],[86.7628,49.7482],[86.7714,49.7638],[86.7794,49.7945],[86.7465,49.7866],[86.7153,49.7942],[86.7108,49.8012],[86.6938,49.8098],[86.6762,49.8076],[86.6539,49.8126],[86.64,49.808],[86.5902,49.801],[86.6106,49.772],[86.6024,49.744],[86.5784,49.7339],[86.5823,49.7241],[86.5588,49.713],[86.5266,49.702],[86.5092,49.691],[86.5084,49.6782],[86.4885,49.6579],[86.4563,49.6383],[86.4286,49.6294],[86.4194,49.6083],[86.3868,49.6014],[86.3714,49.5936],[86.3314,49.5932],[86.3159,49.5993],[86.2866,49.5918],[86.2716,49.5827],[86.266,49.5661],[86.267,49.5465],[86.2394,49.5254],[86.2283,49.4952],[86.2172,49.4778],[86.202,49.4661],[86.1739,49.479],[86.1706,49.4976],[86.1594,49.5077],[86.1129,49.5244],[86.0773,49.5217],[86.0372,49.5218],[86.0328,49.5081],[85.9865,49.4889],[85.969,49.4871],[85.955,49.5076],[85.9444,49.5133],[85.9294,49.5359],[85.9498,49.556],[85.9382,49.5621],[85.9279,49.5588],[85.9173,49.5652],[85.8902,49.562],[85.8837,49.5669],[85.8411,49.5477],[85.816,49.547],[85.8015,49.567],[85.7806,49.575],[85.7569,49.5772],[85.6939,49.5641],[85.6787,49.5509],[85.6272,49.5778],[85.6216,49.6009],[85.5991,49.6126],[85.5837,49.6137],[85.574,49.6041],[85.5533,49.5944],[85.5325,49.5985],[85.5239,49.5957],[85.4902,49.5981],[85.3884,49.6348],[85.3213,49.5908],[85.2575,49.5885],[85.255,49.604],[85.2647,49.6198],[85.2545,49.6273],[85.2107,49.6274],[85.2163,49.637],[85.2035,49.6523],[85.2101,49.6618],[85.2149,49.6891],[85.208,49.6978],[85.2068,49.7154],[85.2155,49.7185],[85.1983,49.7379],[85.2034,49.7453],[85.1753,49.7546],[85.1657,49.7691],[85.1506,49.7673],[85.1395,49.7854],[85.1446,49.7964],[85.1356,49.8003],[85.1286,49.8129],[85.1103,49.8197],[85.1002,49.8279],[85.1049,49.8344],[85.1004,49.8521],[85.0846,49.8602],[85.0804,49.8686],[85.0597,49.885],[85.0233,49.8911],[84.9952,49.9056],[84.9855,49.9068],[84.9876,49.9206],[84.9729,49.9543],[84.9946,49.9682],[84.978,49.9763],[84.9836,49.984],[85.0085,49.9953],[85.0253,49.9999],[85.0378,50.0091],[85.0335,50.0418],[85.0395,50.0484],[85.0241,50.0602],[85.0062,50.0582],[84.9748,50.067],[84.9663,50.0725],[84.9458,50.0966],[84.924,50.0922],[84.9053,50.0954],[84.8866,50.1042],[84.8728,50.096],[84.8564,50.0921],[84.8335,50.1051],[84.8326,50.1143],[84.8166,50.1167],[84.8134,50.1362],[84.8052,50.1472],[84.7855,50.1446],[84.7577,50.1369],[84.7324,50.1537],[84.7272,50.1642],[84.6995,50.1778],[84.692,50.1886],[84.6627,50.1937],[84.6282,50.2107],[84.6056,50.2119],[84.5812,50.2081],[84.5675,50.1968],[84.5414,50.2074],[84.5303,50.206],[84.5158,50.2151],[84.5093,50.2258],[84.49,50.2377],[84.4568,50.2473],[84.447,50.2464],[84.4239,50.2269],[84.4098,50.2092],[84.3911,50.2158],[84.3575,50.2138],[84.3258,50.2286],[84.3183,50.247],[84.3005,50.2485],[84.2657,50.2732],[84.2516,50.2901],[84.2597,50.3011],[84.2618,50.3256],[84.2695,50.3383],[84.2683,50.3566],[84.2622,50.3646],[84.242,50.3769],[84.2457,50.3928],[84.242,50.4087],[84.2267,50.4308],[84.2165,50.4342],[84.2065,50.4541],[84.204,50.469],[84.23,50.4812],[84.2356,50.4898],[84.2353,50.5042],[84.2487,50.5156],[84.2306,50.5402],[84.2156,50.5433],[84.1967,50.5416],[84.1762,50.5516],[84.1674,50.57],[84.1534,50.5721],[84.1569,50.5873],[84.144,50.6062],[84.1185,50.6081],[84.1078,50.6231],[84.0826,50.6336],[84.0739,50.6439],[84.0717,50.6591],[84.0578,50.6627],[84.0347,50.683],[84.0232,50.6979],[83.9893,50.7087],[83.9661,50.728],[83.951,50.7464],[83.9517,50.7636],[83.9762,50.7799],[83.9727,50.7954],[83.9624,50.8025],[83.9105,50.8163],[83.8971,50.8321],[83.8763,50.8385],[83.877,50.8472],[83.85,50.8647],[83.8363,50.87],[83.8337,50.88],[83.7902,50.8876],[83.7546,50.8901],[83.7433,50.8942],[83.7116,50.8934],[83.6926,50.909],[83.6771,50.9172],[83.6786,50.928],[83.6565,50.9395],[83.6487,50.9548],[83.627,50.9499],[83.5977,50.9607],[83.5935,50.9494],[83.5843,50.9467],[83.5723,50.9549],[83.5376,50.9609],[83.5123,50.9485],[83.5044,50.9579],[83.4995,50.9766],[83.4475,50.9771],[83.4302,50.9867],[83.4398,51.0049],[83.4324,51.0094],[83.4072,51.0132],[83.3871,51.0037],[83.3663,50.9986],[83.3582,51.0075],[83.3201,51.0105],[83.2916,51.009],[83.2844,51.015],[83.258,51.0034],[83.2257,51.0012],[83.202,50.9933],[83.1796,51.0038],[83.175,51.0116],[83.121,51.011],[83.1223,50.9845],[83.1148,50.9784],[83.1125,50.966],[83.0917,50.9509],[83.059,50.9346],[83.006,50.9252],[82.9961,50.9134],[82.9796,50.8838],[82.9618,50.8933],[82.9267,50.8987],[82.911,50.9077],[82.8868,50.9051],[82.8855,50.898],[82.8478,50.9097],[82.838,50.918],[82.7942,50.9181],[82.7714,50.9271],[82.7328,50.9273],[82.7314,50.9072],[82.7173,50.9009],[82.7175,50.894],[82.7291,50.8669],[82.7392,50.8504],[82.7065,50.8319],[82.71,50.8225],[82.7015,50.8122],[82.675,50.806],[82.668,50.7932],[82.6471,50.7943],[82.6304,50.7791],[82.6055,50.776],[82.5675,50.7468],[82.5368,50.7471],[82.5023,50.7418],[82.4855,50.7422],[82.4718,50.7561],[82.4107,50.7647],[82.3807,50.7757],[82.3508,50.7756],[82.3052,50.7558],[82.2959,50.7694],[82.2704,50.7698],[82.257,50.7611],[82.2491,50.7489],[82.2224,50.7369],[82.1892,50.7352],[82.1727,50.7301],[82.1753,50.7453],[82.0784,50.7508],[82.0611,50.7574],[82.0629,50.7658],[82.036,50.7691],[82.0128,50.7861],[81.9827,50.7857],[81.9651,50.7894],[81.9061,50.7955],[81.8854,50.8043],[81.7968,50.772],[81.7904,50.7898],[81.7887,50.816],[81.7766,50.8206],[81.7556,50.7817],[81.7281,50.76],[81.6534,50.7519],[81.5833,50.742],[81.5288,50.7517],[81.5139,50.7587],[81.5038,50.7532],[81.4492,50.7561],[81.4606,50.8021],[81.4854,50.8238],[81.4716,50.8432],[81.4716,50.8624],[81.4354,50.8632],[81.4357,50.8723],[81.4209,50.8724],[81.4212,50.8818],[81.4427,50.8919],[81.4423,50.9108],[81.435,50.9109],[81.4351,50.93],[81.4138,50.9304],[81.4132,50.9756],[81.3097,50.9756],[81.2881,50.9741],[81.2645,50.962],[81.2318,50.963],[81.1914,50.9512],[81.1792,50.9575],[81.1546,50.9506],[81.0604,50.9477],[81.0668,50.9673],[81.0816,50.9988],[81.0868,51.0179],[81.0959,51.0314],[81.1016,51.061],[81.1144,51.0644],[81.1397,51.0797],[81.1546,51.0996],[81.1732,51.1436],[81.1649,51.154],[81.177,51.1617],[81.1744,51.1828],[81.1665,51.1849],[81.1463,51.2112],[81.1152,51.2115],[81.1013,51.1798],[81.0469,51.1812],[81.0459,51.1892],[80.9193,51.2191],[80.9409,51.26],[80.909,51.2584],[80.856,51.2774],[80.8535,51.2764],[80.764,51.2939],[80.6773,51.316],[80.6343,51.2634],[80.6342,51.2072],[80.5625,51.2073],[80.4918,51.2043],[80.4471,51.2069],[80.4369,51.1772],[80.4381,51.1192],[80.4552,51.1192],[80.4551,51.1095],[80.482,51.1096],[80.4826,50.9696],[80.4761,50.9651],[80.4409,50.9606],[80.4211,50.962],[80.3757,50.9272],[80.3255,50.9278],[80.3252,50.9184],[80.2471,50.9191],[80.2468,50.8989],[80.1936,50.9002],[80.1925,50.8535],[80.1869,50.851],[80.1863,50.828],[80.0843,50.8296],[80.0841,50.8531],[80.0681,50.8528],[80.0629,50.8465],[80.0639,50.8132],[80.0669,50.7925],[80.0789,50.7386],[80.0757,50.7384],[79.899,50.977],[79.7205,51.2172],[79.6089,51.3651],[79.4743,51.544],[79.4117,51.6242],[79.3265,51.7364],[79.1872,51.9231],[79.0566,52.063],[78.9749,52.1505],[78.8211,52.3155],[78.7171,52.4289],[78.536,52.6346],[78.4499,52.7301],[78.3784,52.8076],[78.3057,52.8844],[78.2325,52.9581],[78.135,53.0522],[78.0874,53.0989],[78.0257,53.161],[77.9409,53.2523],[77.9065,53.2914],[77.8914,53.2961],[77.8769,53.3076],[77.7545,53.3727],[77.6224,53.4433],[77.5065,53.5063],[77.3604,53.584],[77.2599,53.6358],[77.1452,53.6924],[76.9222,53.8034],[76.8921,53.8174],[76.6867,53.922],[76.5365,54.0005],[76.5291,54.0165],[76.5041,54.0319],[76.4978,54.0714],[76.4351,54.1228],[76.4392,54.1672],[76.5828,54.1489],[76.6163,54.1611],[76.6169,54.1535],[76.6447,54.1244],[76.6713,54.1324],[76.6951,54.147],[76.7568,54.1617],[76.7496,54.1824],[76.7904,54.1994],[76.8113,54.2173],[76.8277,54.2244],[76.8359,54.2624],[76.8291,54.274],[76.8651,54.2862],[76.8785,54.3022],[76.8603,54.3611],[76.8205,54.368],[76.7865,54.3599],[76.7816,54.3776],[76.837,54.3887],[76.8748,54.3981],[76.8781,54.4029],[76.9357,54.4158],[76.9393,54.4388],[76.9291,54.4579],[76.8751,54.4483],[76.845,54.44],[76.8263,54.4288],[76.7956,54.4191],[76.7299,54.4186],[76.7306,54.4029],[76.6906,54.3751],[76.6761,54.3449],[76.6477,54.3358],[76.6101,54.3367],[76.5835,54.3417],[76.5454,54.3272],[76.476,54.3183],[76.3522,54.3341],[76.2585,54.3586],[76.2307,54.3237],[76.1868,54.3016],[76.2278,54.2761],[76.2034,54.2603],[76.1409,54.2432],[75.9047,54.18],[75.5979,54.0982],[75.5285,54.1149],[75.3756,54.0696],[75.4347,54.0098],[75.4417,54.0079],[75.4404,53.9724],[75.4115,53.9721],[75.4112,53.9596],[75.3772,53.9596],[75.3243,53.9395],[75.2642,53.9087],[75.2167,53.876],[75.0536,53.7956],[75.0299,53.796],[75.0263,53.8025],[74.9844,53.8119],[74.9818,53.8225],[74.9152,53.8223],[74.8848,53.8243],[74.8633,53.8179],[74.7886,53.8282],[74.7571,53.7444],[74.6677,53.7561],[74.6349,53.6681],[74.4577,53.6913],[74.4213,53.5939],[74.451,53.5896],[74.4473,53.581],[74.4883,53.5756],[74.4539,53.5388],[74.3897,53.456],[74.2913,53.4918],[74.3053,53.5173],[74.268,53.5235],[74.2871,53.5601],[74.2344,53.569],[74.243,53.5883],[74.162,53.6016],[74.146,53.5543],[74.0509,53.5661],[74.0717,53.6297],[73.901,53.6511],[73.821,53.5782],[73.7475,53.6069],[73.6664,53.613],[73.6451,53.5528],[73.5943,53.559],[73.5812,53.5202],[73.438,53.435],[73.3627,53.4679],[73.3864,53.4878],[73.3972,53.5218],[73.345,53.5337],[73.3468,53.543],[73.2385,53.5673],[73.2514,53.5971],[73.2772,53.639],[73.2552,53.6408],[73.2528,53.6746],[73.3224,53.6759],[73.3419,53.7182],[73.3556,53.7664],[73.3434,53.788],[73.3993,53.7931],[73.4491,53.8071],[73.4301,53.8237],[73.4284,53.8485],[73.452,53.8763],[73.5817,53.8684],[73.691,53.8565],[73.7363,53.9727],[73.767,54.0538],[73.6989,54.0484],[73.7036,54.066],[73.6298,54.07],[73.656,54.0449],[73.6087,54.0075],[73.5831,54.0158],[73.5188,54.0042],[73.5208,53.966],[73.5375,53.9521],[73.5226,53.9411],[73.5056,53.9384],[73.4573,53.964],[73.4021,53.9788],[73.4035,53.9452],[73.2761,53.9428],[73.2782,53.9541],[73.2474,53.9572],[73.1925,53.9703],[73.0668,53.9855],[73.0718,54.0304],[73.0602,54.0403],[72.9786,54.0496],[72.9939,54.0978],[72.8317,54.0979],[72.8252,54.1211],[72.7236,54.1227],[72.6088,54.1369],[72.6132,54.1222],[72.5609,54.1166],[72.5327,54.0436],[72.5668,54.0389],[72.5716,54.052],[72.6203,54.047],[72.6802,54.0448],[72.7195,53.9996],[72.7143,53.9509],[72.6729,53.9554],[72.594,53.9717],[72.5452,53.9793],[72.5436,53.9753],[72.4866,53.9008],[72.4298,53.9128],[72.3696,53.9447],[72.4179,53.9985],[72.4353,54.0461],[72.3971,54.0514],[72.4073,54.0782],[72.3694,54.0834],[72.3781,54.1089],[72.4335,54.1021],[72.4403,54.1204],[72.4916,54.1135],[72.5153,54.1127],[72.5068,54.1402],[72.4175,54.1512],[72.3444,54.1789],[72.2991,54.1868],[72.3349,54.2392],[72.337,54.2463],[72.291,54.2497],[72.3002,54.2937],[72.2797,54.3163],[72.2429,54.3309],[72.1942,54.3577],[72.192,54.3535],[72.034,54.3656],[72.0525,54.3378],[72.0892,54.3273],[72.0953,54.3138],[72.1356,54.3052],[72.133,54.2754],[72.1176,54.2783],[72.0858,54.2195],[72.1354,54.2097],[72.2198,54.1829],[72.1846,54.1206],[72.1013,54.1476],[72.1156,54.1737],[72.0645,54.1837],[72.0735,54.1995],[71.9483,54.2434],[71.9333,54.2288],[71.8856,54.2312],[71.752,54.2538],[71.7275,54.1875],[71.7435,54.1658],[71.7643,54.1471],[71.7203,54.1057],[71.6721,54.1105],[71.6711,54.099],[71.6164,54.1],[71.6099,54.1158],[71.4871,54.1012],[71.4904,54.1594],[71.3843,54.1675],[71.3868,54.1815],[71.3001,54.1851],[71.2956,54.1842],[71.2749,54.1477],[71.1785,54.0947],[71.1224,54.1296],[71.1368,54.1621],[71.1021,54.1666],[71.1115,54.1877],[71.0561,54.1913],[71.0609,54.2057],[71.0711,54.2058],[71.0732,54.2742],[70.9961,54.2752],[70.998,54.336],[71.1129,54.3352],[71.1093,54.3217],[71.1984,54.3116],[71.2043,54.3319],[71.1978,54.3329],[71.1987,54.3545],[71.2297,54.3544],[71.2313,54.407],[71.2,54.4076],[71.2022,54.4612],[71.1713,54.4612],[71.1731,54.5487],[71.1675,54.5605],[71.1935,54.6003],[71.2142,54.6099],[71.291,54.6064],[71.293,54.6678],[71.239,54.6683],[71.2396,54.6863],[71.2101,54.6866],[71.2108,54.7004],[71.0967,54.6998],[71.0967,54.7117],[71.0718,54.7338],[71.0667,54.7479],[71.0299,54.7788],[71.0256,54.7996],[71.0111,54.8136],[71.0262,54.828],[71.0193,54.852],[70.9992,54.8542],[70.9743,54.8681],[70.9803,54.8758],[70.9554,54.8883],[70.9931,54.927],[71.0082,54.9704],[70.9866,54.9758],[70.9765,54.983],[71,54.9897],[70.9877,55.0006],[71.0043,55.0122],[71.0033,55.0526],[70.9868,55.0519],[70.9931,55.0736],[71.0201,55.0856],[70.9225,55.1296],[70.9252,55.1671],[70.8804,55.1805],[70.7992,55.2714],[70.8222,55.2792],[70.8077,55.2925],[70.7905,55.2893],[70.6954,55.2894],[70.6205,55.2533],[70.4773,55.273],[70.4754,55.2804],[70.4607,55.2855],[70.4093,55.2534],[70.402,55.2156],[70.2919,55.1922],[70.2276,55.1472],[70.2061,55.1455],[70.1798,55.1593],[70.1138,55.1722],[70.0862,55.184],[70.0579,55.2091],[69.9503,55.2099],[69.9121,55.2434],[69.8629,55.3],[69.7909,55.3247],[69.7759,55.3367],[69.7387,55.3381],[69.7479,55.3445],[69.7095,55.3514],[69.659,55.3488],[69.5502,55.3507],[69.54,55.3373],[69.482,55.3409],[69.4442,55.3418],[69.4037,55.3563],[69.4188,55.3707],[69.4164,55.3815],[69.3983,55.3855],[69.3755,55.3817],[69.3646,55.3867],[69.3489,55.3803],[69.3328,55.3575],[69.2922,55.3446],[69.1997,55.3304],[69.1662,55.3817],[69.1554,55.3918],[69.13,55.3989],[69.0473,55.4269],[69.0263,55.428],[68.98,55.4247],[68.9809,55.4431],[68.9324,55.4418],[68.9261,55.411],[68.9215,55.4069],[68.9151,55.3643],[68.9844,55.364],[68.9847,55.3381],[69.0011,55.3288],[69.0012,55.2884],[68.9806,55.2853],[68.9571,55.3266],[68.9283,55.3188],[68.8977,55.3315],[68.8515,55.3426],[68.8159,55.3604],[68.7472,55.3784],[68.7107,55.3496],[68.7216,55.3364],[68.7215,55.3253],[68.7006,55.3251],[68.7087,55.3074],[68.6856,55.2832],[68.6694,55.2756],[68.635,55.2653],[68.6364,55.2421],[68.6589,55.2357],[68.6433,55.2167],[68.6488,55.2082],[68.6201,55.1983],[68.5998,55.2006],[68.5949,55.2193],[68.5572,55.215],[68.5586,55.2091],[68.5021,55.201],[68.4453,55.1967],[68.3584,55.2063],[68.3533,55.1811],[68.331,55.181],[68.3179,55.1864],[68.3042,55.2035],[68.2823,55.2051],[68.2396,55.1871],[68.177,55.1987],[68.177,55.1776],[68.2098,55.1776],[68.2196,55.1549],[68.1893,55.1514],[68.2402,55.1125],[68.2575,55.1131],[68.2558,55.1009],[68.2708,55.0851],[68.3147,55.0766],[68.3123,55.0672],[68.2366,55.0549],[68.2379,55.0156],[68.2037,54.9968],[68.1964,54.99],[68.2272,54.9771],[68.2341,54.9695],[68.0324,54.9504],[67.9104,54.9837],[67.8197,54.9713],[67.8011,54.9409],[67.7984,54.9249],[67.7729,54.8857],[67.6981,54.8702],[67.6938,54.8629],[67.6407,54.8648],[67.5629,54.8443],[67.5356,54.8526],[67.5168,54.8618],[67.4771,54.8579],[67.4617,54.8634],[67.397,54.8552],[67.3528,54.8641],[67.3334,54.8735],[67.2897,54.8624],[67.2817,54.8258],[67.2195,54.8145],[67.1264,54.8078],[67.1013,54.8135],[67.0779,54.8049],[67.0693,54.7911],[67.0434,54.778],[66.999,54.7894],[66.9324,54.7863],[66.7821,54.7687],[66.7367,54.7435],[66.7021,54.7369],[66.678,54.7427],[66.652,54.7437],[66.3816,54.7038],[65.9986,54.6251],[65.9642,54.6378],[65.9818,54.717],[65.8453,54.6972],[65.8308,54.6532],[65.7997,54.624],[65.7822,54.6249],[65.7797,54.6123],[65.7473,54.6074],[65.6331,54.6408],[65.5945,54.6371],[65.55,54.6369],[65.5305,54.6495],[65.4896,54.6555],[65.4648,54.6423],[65.4565,54.6244],[65.4948,54.5967],[65.4957,54.5784],[65.5038,54.5709],[65.4811,54.5657],[65.4647,54.5664],[65.4259,54.5812],[65.3794,54.5734],[65.3579,54.5774],[65.3286,54.57],[65.306,54.5684],[65.2636,54.5466],[65.238,54.5494],[65.2145,54.5414],[65.2125,54.5318],[65.2233,54.4901],[65.2145,54.4772],[65.2183,54.4704],[65.2013,54.4658],[65.2009,54.4522],[65.222,54.437],[65.2392,54.3758],[65.2627,54.3624],[65.222,54.3343],[65.1909,54.3429],[65.15,54.3372],[65.1212,54.3302],[65.1035,54.3355],[65.0705,54.3657],[65.0247,54.3937],[64.9822,54.4155],[64.9744,54.4241],[64.9538,54.4167],[64.9312,54.4133],[64.9062,54.4009],[64.844,54.3842],[64.8018,54.3684],[64.7376,54.3539],[64.6984,54.3647],[64.659,54.3608],[64.6357,54.3741],[64.6293,54.3925],[64.605,54.3917],[64.5993,54.3757],[64.5757,54.3743],[64.5574,54.3624],[64.5438,54.365],[64.5226,54.3545],[64.5031,54.3626],[64.4817,54.3666],[64.4634,54.3599],[64.4632,54.3461],[64.4518,54.3367],[64.421,54.3265],[64.4,54.3283],[64.3589,54.3368],[64.3332,54.3303],[64.3107,54.3322],[64.2315,54.3168],[64.2141,54.3235],[64.2088,54.3162],[64.1716,54.307],[64.1401,54.308],[64.0964,54.3147],[64.0669,54.311],[64.0716,54.3028],[64.0448,54.2857],[64.0295,54.2829],[64.0115,54.2909],[64.0139,54.3044],[63.9868,54.3012],[63.9748,54.2905],[63.9802,54.2746],[64.0089,54.2502],[64.0213,54.2303],[64.0181,54.2226],[63.9961,54.2084],[63.9755,54.2028],[63.9143,54.1981],[63.8977,54.2163],[63.8794,54.2249],[63.8036,54.2711],[63.7846,54.2662],[63.7644,54.2658],[63.7282,54.2576],[63.7147,54.2522],[63.6572,54.2434],[63.6243,54.2288],[63.5768,54.2192],[63.5386,54.2095],[63.5252,54.2157],[63.4925,54.2108],[63.4601,54.1975],[63.4454,54.202],[63.4187,54.2007],[63.3953,54.1918],[63.3593,54.189],[63.3343,54.2008],[63.2758,54.1963],[63.2638,54.1909],[63.2338,54.197],[63.2241,54.1896],[63.1887,54.1867],[63.1717,54.1938],[63.1599,54.1908],[63.1527,54.1793],[63.1531,54.1641],[63.1695,54.1526],[63.1562,54.143],[63.1588,54.1298],[63.1522,54.1229],[63.1326,54.1232],[63.1077,54.117],[63.0818,54.1042],[63.0512,54.1007],[63.0152,54.1079],[62.996,54.1051],[62.9768,54.1115],[62.9569,54.1084],[62.9371,54.1164],[62.876,54.1184],[62.8708,54.1148],[62.8234,54.1153],[62.807,54.1119],[62.7897,54.0967],[62.766,54.0926],[62.7521,54.0948],[62.7257,54.0905],[62.7085,54.0961],[62.6691,54.0903],[62.6149,54.0722],[62.5966,54.0713],[62.5863,54.0599],[62.5734,54.0575],[62.5688,54.0465],[62.5772,54.0382],[62.5808,54.0146],[62.5973,53.9949],[62.5869,53.9867],[62.5777,53.9575],[62.5623,53.9485],[62.5543,53.9337],[62.5262,53.9237],[62.51,53.9129],[62.4755,53.931],[62.4467,53.9269],[62.3964,54.0038],[62.4594,54.0136],[62.494,54.0326],[62.4188,54.047],[62.3899,54.0478],[62.3644,54.0379],[62.3456,54.0381],[62.3324,54.0321],[62.2969,54.0329],[62.2889,54.0358],[62.2337,54.0336],[62.2139,54.0391],[62.2086,54.0328],[62.1889,54.0336],[62.1761,54.0286],[62.1652,54.0374],[62.1456,54.0347],[62.0837,54.0485],[62.0689,54.0397],[62.0061,54.0375],[62.0155,54.0093],[62.0439,53.9485],[61.9323,53.9499],[61.9278,53.9544],[61.8571,53.9626],[61.8764,53.9813],[61.8845,54.0002],[61.893,54.0091],[61.8752,54.0162],[61.8581,54.0088],[61.8443,54.0133],[61.8527,54.0251],[61.8459,54.0317],[61.8187,54.0192],[61.782,53.9846],[61.7459,54.0006],[61.7413,54.0157],[61.7252,54.0295],[61.7006,54.0189],[61.6672,54.0171],[61.6604,54.0298],[61.6435,54.0189],[61.6302,54],[61.6139,53.9905],[61.6172,53.9843],[61.6116,53.9681],[61.571,53.9676],[61.5691,54.0082],[61.4806,54.0301],[61.4834,54.0507],[61.4729,54.0704],[61.4801,54.083],[61.4189,54.0824],[61.4071,54.0866],[61.3793,54.0847],[61.36,54.0745],[61.339,54.0786],[61.2938,54.0739],[61.2661,54.0416],[61.2465,54.0378],[61.2502,54.0234],[61.2723,53.9927],[61.2646,53.9652],[61.2799,53.9286],[61.2051,53.9189],[61.1714,53.9431],[61.1804,53.972],[61.0999,53.9748],[61.0802,53.9705],[61.0886,53.9564],[61.0798,53.9454],[61.0647,53.9452],[61.0544,53.9584],[61.0294,53.9551],[60.9971,53.9349],[60.9935,53.907],[61.0362,53.9085],[61.0573,53.894],[61.1369,53.9045],[61.1792,53.8526],[61.2073,53.8473],[61.2104,53.8382],[61.2372,53.8418],[61.2272,53.7956],[61.1976,53.7803],[61.1703,53.7722],[61.1341,53.7371],[61.1147,53.7209],[61.0585,53.7213],[61.0424,53.653],[60.9986,53.6508],[60.9956,53.6729],[60.8959,53.6679],[60.9003,53.6287],[61.0899,53.6149],[61.1218,53.6151],[61.1264,53.5899],[61.1639,53.5773],[61.2146,53.5636],[61.27,53.5671],[61.3079,53.5599],[61.3386,53.5577],[61.3578,53.5614],[61.3912,53.6021],[61.5072,53.595],[61.51,53.5892],[61.5531,53.5931],[61.5652,53.5383],[61.5822,53.5406],[61.5933,53.5261],[61.5592,53.5079],[61.5333,53.505],[61.5147,53.4906],[61.5186,53.473],[61.4878,53.4759],[61.4648,53.4628],[61.4539,53.4682],[61.4258,53.4624],[61.4284,53.4555],[61.3669,53.4674],[61.3683,53.4805],[61.3594,53.4931],[61.3151,53.5073],[61.3179,53.5165],[61.2583,53.508],[61.2288,53.4839],[61.2201,53.455],[61.223,53.4442],[61.2167,53.4318],[61.1553,53.4055],[61.1689,53.3573],[61.177,53.3118],[61.2262,53.2834],[61.2897,53.286],[61.3419,53.285],[61.4002,53.2739],[61.4566,53.2395],[61.5271,53.2153],[61.6305,53.2232],[61.6394,53.2489],[61.6638,53.2649],[61.6739,53.2657],[61.703,53.2495],[61.7324,53.2392],[61.7507,53.2066],[61.7842,53.1846],[61.916,53.1421],[62.0274,53.1419],[62.1193,53.1118],[62.1474,53.068],[62.1304,52.9901],[62.0293,52.951],[61.9608,52.9502],[61.8478,53.0033],[61.8342,52.9929],[61.8044,52.9965],[61.7644,52.9968],[61.7345,52.9914],[61.7096,52.9925],[61.7018,52.9982],[61.6732,52.9685],[61.6571,52.9673],[61.6321,52.9541],[61.573,53.001],[61.5571,53.0121],[61.5239,53.0151],[61.4934,53.0303],[61.469,53.0366],[61.3907,52.9923],[61.3068,52.996],[61.251,53.0362],[61.2314,53.0251],[61.2131,53.0247],[61.1921,53.011],[61.1699,53.0025],[61.144,52.9991],[61.1208,52.9867],[61.1123,52.9692],[61.0959,52.9667],[61.0829,52.9748],[61.054,52.9806],[61.0276,52.9771],[61.0086,52.9781],[61.0304,52.9505],[61.0762,52.9278],[61.073,52.9233],[61.0471,52.9174],[61.0344,52.9034],[60.9838,52.8851],[60.9737,52.8679],[60.9394,52.8477],[60.9253,52.8462],[60.9009,52.8343],[60.8834,52.8305],[60.8848,52.8213],[60.8344,52.7741],[60.821,52.775],[60.7319,52.761],[60.7119,52.7644],[60.7146,52.663],[60.7444,52.6516],[60.7447,52.6317],[60.763,52.6266],[60.7783,52.6303],[60.8171,52.6312],[60.8431,52.641],[60.8436,52.5394],[60.8418,52.5223],[60.9823,52.5079],[60.9866,52.4627],[60.9922,52.4231],[61.0017,52.4145],[61.0668,52.3471],[61.0327,52.3302],[61.0107,52.3261],[61.0056,52.3146],[60.9904,52.3078],[60.979,52.2883],[60.9521,52.2707],[60.9269,52.2634],[60.8983,52.2518],[60.8776,52.2494],[60.8257,52.2283],[60.7787,52.2264],[60.7698,52.205],[60.7277,52.1707],[60.7167,52.1562],[60.5108,52.1564],[60.4059,52.0981],[60.3395,52.0548],[60.2614,52.0157],[60.1977,51.9909],[60.002,51.9933],[60.0033,51.9712],[59.9941,51.9646],[60.0102,51.9404],[60.0299,51.9361],[60.0327,51.9135],[60.0745,51.8883],[60.0589,51.8701],[60.1439,51.8705],[60.1429,51.8594],[60.1573,51.8579],[60.1558,51.8736],[60.1618,51.8922],[60.1479,51.8939],[60.1448,51.9069],[60.3204,51.8314],[60.428,51.7984],[60.5175,51.7977],[60.5183,51.7749],[60.4764,51.7657],[60.4566,51.7487],[60.4457,51.7309],[60.4272,51.7183],[60.4005,51.7063],[60.3533,51.6893],[60.3638,51.6766],[60.3777,51.6757],[60.3908,51.6685],[60.4009,51.6566],[60.4215,51.6474],[60.527,51.6379],[60.538,51.618],[60.734,51.6167],[60.9356,51.6153],[60.9354,51.6042],[60.9116,51.5706],[60.9108,51.5506],[60.9174,51.5469],[60.933,51.5257],[60.9427,51.5226],[60.9526,51.5036],[60.9522,51.4914],[60.9911,51.4879],[60.9993,51.4677],[61.0165,51.4626],[61.0294,51.4664],[61.0698,51.4637],[61.0874,51.4681],[61.0974,51.4628],[61.1051,51.4486],[61.1299,51.4578],[61.1374,51.4528],[61.1536,51.4563],[61.1799,51.4543],[61.203,51.4611],[61.2172,51.4492],[61.2315,51.4506],[61.2815,51.4385],[61.3027,51.4384],[61.3171,51.4437],[61.3533,51.439],[61.3668,51.4267],[61.39,51.4273],[61.3909,51.4198],[61.4317,51.4177],[61.4478,51.4095],[61.4757,51.4109],[61.5052,51.407],[61.5497,51.3233],[61.6898,51.256],[61.5681,51.2378],[61.5036,51.0103],[61.4859,50.9587],[61.449,50.8061],[61.3635,50.7863],[61.1236,50.7312],[60.809,50.6566],[60.7854,50.6608],[60.7408,50.6655],[60.7001,50.6661],[60.592,50.6613],[60.5574,50.6611],[60.4868,50.6658],[60.4599,50.6647],[60.3252,50.6703],[60.1828,50.7784],[60.2166,50.8127],[60.1879,50.8386],[60.146,50.84],[60.1364,50.8311],[60.0715,50.8221],[60.0149,50.8221],[59.9727,50.7687],[59.9975,50.6748],[59.9609,50.6609],[59.9098,50.6363],[59.862,50.5989],[59.8132,50.5355],[59.7761,50.541],[59.6153,50.5308],[59.5095,50.4953],[59.5167,50.5283],[59.4574,50.5434],[59.4674,50.5696],[59.4629,50.5843],[59.5688,50.5735],[59.561,50.5868],[59.5368,50.609],[59.5026,50.6122],[59.4793,50.6415],[59.451,50.6456],[59.418,50.6367],[59.2984,50.653],[59.2786,50.6336],[59.2342,50.6642],[59.2063,50.6675],[59.1931,50.6727],[59.1617,50.6681],[59.1139,50.6831],[59.0886,50.6771],[59.0419,50.6898],[59.0313,50.6881],[58.9816,50.6923],[58.9109,50.6955],[58.8743,50.6998],[58.8597,50.7205],[58.8463,50.7342],[58.8513,50.7421],[58.8454,50.7569],[58.8275,50.7686],[58.8173,50.7686],[58.7744,50.8147],[58.6564,50.8086],[58.6636,50.8416],[58.6965,50.8482],[58.6882,50.8856],[58.6368,50.8801],[58.5936,50.8693],[58.5786,50.9398],[58.6045,50.9469],[58.5942,50.9714],[58.6423,50.9875],[58.6125,51.0268],[58.6181,51.0315],[58.6142,51.0474],[58.5765,51.0559],[58.5206,51.0849],[58.487,51.0913],[58.4811,51.0836],[58.4623,51.0802],[58.384,51.0749],[58.3789,51.0773],[58.3734,51.1106],[58.3605,51.1098],[58.3589,51.1229],[58.342,51.1282],[58.3356,51.136],[58.3405,51.1457],[58.321,51.1623],[58.3017,51.1525],[58.2672,51.1446],[58.2464,51.1454],[58.2379,51.1362],[58.2058,51.1294],[58.2035,51.124],[58.2182,51.1108],[58.216,51.0967],[58.2077,51.0885],[58.1737,51.0859],[58.1702,51.0805],[58.1772,51.066],[58.1367,51.0669],[58.1255,51.071],[58.1027,51.0701],[58.081,51.0844],[58.0909,51.1082],[58.0888,51.1207],[58.0737,51.1229],[58.0542,51.111],[58.0353,51.1094],[58.0205,51.095],[57.9718,51.0909],[57.9516,51.0863],[57.9386,51.0911],[57.9201,51.1177],[57.887,51.1103],[57.8817,51.1017],[57.8669,51.0994],[57.8415,51.1113],[57.8292,51.1132],[57.821,51.1302],[57.8067,51.1393],[57.7719,51.1384],[57.754,51.0558],[57.7552,50.9698],[57.7514,50.9397],[57.7618,50.9202],[57.7398,50.9226],[57.7356,50.9277],[57.7109,50.9259],[57.687,50.917],[57.6863,50.9276],[57.5591,50.9359],[57.5272,50.9164],[57.519,50.9054],[57.5248,50.8999],[57.5121,50.8785],[57.4709,50.8802],[57.4495,50.889],[57.415,50.8965],[57.4106,50.9028],[57.3933,50.9079],[57.3609,50.927],[57.3237,50.9446],[57.3282,50.9513],[57.3148,50.9878],[57.3008,50.9944],[57.289,51.0101],[57.2903,51.0251],[57.2834,51.0329],[57.2462,51.0262],[57.2299,51.032],[57.2193,51.041],[57.2325,51.047],[57.2055,51.0731],[57.1876,51.1019],[57.1848,51.115],[57.1441,51.0991],[57.1463,51.0877],[57.0577,51.0696],[56.9844,51.0626],[56.9428,51.0875],[56.8875,51.0603],[56.859,51.0733],[56.8193,51.0854],[56.7802,51.0938],[56.7561,51.087],[56.7361,51.078],[56.6997,51.075],[56.7121,51.0483],[56.7508,50.982],[56.7275,50.9775],[56.7102,50.9708],[56.7033,50.9801],[56.6778,50.9881],[56.6338,50.9853],[56.6204,50.992],[56.5802,51.0294],[56.5595,51.037],[56.5379,51.0488],[56.5272,51.0718],[56.51,51.0798],[56.4482,51.0569],[56.4571,51.0019],[56.4604,50.9651],[56.4228,50.9664],[56.3769,50.9654],[56.3717,50.9487],[56.3925,50.9455],[56.3613,50.9013],[56.2981,50.9019],[56.2473,50.9137],[56.1813,50.9381],[56.1752,50.9031],[56.1572,50.8798],[56.133,50.8306],[56.1245,50.7868],[56.1372,50.7536],[56.0916,50.7232],[56.0545,50.6948],[56.0307,50.6822],[56.0004,50.6703],[55.9823,50.667],[55.9159,50.6414],[55.9012,50.6207],[55.8682,50.626],[55.83,50.6228],[55.8147,50.6106],[55.7951,50.6067],[55.7774,50.5874],[55.7463,50.5793],[55.7357,50.5671],[55.7362,50.5503],[55.7106,50.5553],[55.6614,50.5602],[55.6189,50.5822],[55.6114,50.5985],[55.5817,50.6051],[55.563,50.604],[55.5341,50.6135],[55.5315,50.6484],[55.5026,50.6699],[55.4029,50.6814],[55.3967,50.668],[55.3837,50.6536],[55.1464,50.7968],[55.0562,50.8194],[55.1295,50.8796],[55.1265,50.8987],[55.11,50.8996],[55.1062,50.9071],[55.0851,50.9212],[55.0726,50.924],[55.0271,50.9158],[55.0249,50.9089],[55.0099,50.9053],[54.9554,50.9076],[54.8939,50.9201],[54.9032,50.9376],[54.8888,50.9421],[54.898,50.9578],[54.8385,50.979],[54.7915,50.9853],[54.7408,51.0163],[54.7324,51.0276],[54.7398,51.0386],[54.7265,51.0405],[54.7185,51.0285],[54.7068,51.0388],[54.6895,51.0157],[54.6691,51.0258],[54.6428,51.0196],[54.6257,51.0222],[54.6132,51.0194],[54.6016,51.0298],[54.5893,51.0289],[54.5745,51.0207],[54.5816,51.009],[54.5698,51.0044],[54.5536,51.0083],[54.5478,51.0006],[54.5609,50.9928],[54.5606,50.9847],[54.5809,50.9744],[54.5723,50.962],[54.5758,50.9494],[54.5936,50.9448],[54.5563,50.928],[54.5479,50.9355],[54.531,50.9346],[54.5394,50.9242],[54.5498,50.9286],[54.5662,50.9155],[54.6176,50.9246],[54.6578,50.915],[54.6712,50.9057],[54.6976,50.8927],[54.6832,50.8341],[54.6571,50.8233],[54.6849,50.7805],[54.6784,50.7178],[54.6971,50.7004],[54.7181,50.6901],[54.7094,50.6699],[54.719,50.6639],[54.7204,50.6337],[54.731,50.6217],[54.7195,50.6062],[54.6854,50.5929],[54.646,50.5603],[54.6142,50.5387],[54.6033,50.5442],[54.5927,50.5601],[54.5745,50.5526],[54.5448,50.5277],[54.4662,50.5666],[54.4136,50.6207],[54.4378,50.6615],[54.4404,50.6863],[54.447,50.6958],[54.4573,50.7228],[54.4636,50.7322],[54.4631,50.7463],[54.4736,50.7784],[54.49,50.7939],[54.4972,50.7956],[54.5184,50.8119],[54.5151,50.8181],[54.5287,50.8301],[54.5182,50.8546],[54.4524,50.8512],[54.4412,50.8786],[54.4234,50.8759],[54.3806,50.8847],[54.358,50.8854],[54.3379,50.9037],[54.3191,50.8993],[54.3057,50.9045],[54.288,50.9023],[54.2812,50.9243],[54.2866,50.9413],[54.2811,50.9533],[54.2641,50.9499],[54.2555,50.9563],[54.2304,50.9539],[54.2162,50.963],[54.2073,50.9602],[54.1899,50.9749],[54.2048,50.9857],[54.1807,51.0013],[54.1762,51.0104],[54.1602,51.0127],[54.1946,51.0304],[54.182,51.0427],[54.1697,51.0459],[54.1609,51.0663],[54.1513,51.0725],[54.1496,51.0912],[54.137,51.1082],[54.1026,51.1184],[54.0736,51.121],[54.0472,51.1326],[54.0359,51.1426],[54.0278,51.1621],[54.0126,51.1599],[53.9895,51.1696],[53.9705,51.1668],[53.9705,51.1754],[53.9341,51.1856],[53.9324,51.1934],[53.8904,51.1863],[53.8915,51.1972],[53.8819,51.2003],[53.8587,51.1995],[53.8548,51.1894],[53.838,51.1924],[53.8257,51.2016],[53.8131,51.2039],[53.8099,51.2138],[53.7824,51.214],[53.7585,51.2058],[53.7418,51.205],[53.72,51.217],[53.7121,51.2272],[53.6873,51.226],[53.663,51.2302],[53.6568,51.2486],[53.66,51.2571],[53.649,51.2618],[53.6484,51.2742],[53.6308,51.2705],[53.6173,51.2792],[53.6031,51.3021],[53.5958,51.3057],[53.6049,51.3225],[53.6203,51.3268],[53.6208,51.3424],[53.6112,51.3511],[53.5953,51.3554],[53.6097,51.3712],[53.6185,51.3682],[53.6359,51.3759],[53.6271,51.3903],[53.6122,51.3974],[53.5996,51.3952],[53.5832,51.4128],[53.5689,51.4147],[53.5752,51.4246],[53.5683,51.4334],[53.5534,51.4259],[53.537,51.4313],[53.5186,51.4266],[53.5171,51.4351],[53.496,51.4313],[53.4812,51.4432],[53.4636,51.4383],[53.4409,51.4374],[53.4349,51.4473],[53.4374,51.459],[53.4212,51.4811],[53.3924,51.4912],[53.3684,51.4937],[53.3385,51.4904],[53.3404,51.5052],[53.3222,51.5095],[53.2859,51.4977],[53.2868,51.4884],[53.2726,51.4828],[53.2605,51.4909],[53.2633,51.5039],[53.255,51.5119],[53.2183,51.5103],[53.1996,51.5034],[53.1731,51.5196],[53.1528,51.5252],[53.1401,51.5175],[53.1462,51.5033],[53.1629,51.4972],[53.1558,51.4869],[53.1399,51.4852],[53.1221,51.4912],[53.0943,51.4885],[53.0805,51.5022],[53.065,51.5027],[53.0606,51.4921],[53.0421,51.4898],[53.0301,51.4806],[53.0154,51.4805],[53.0049,51.4733],[52.9669,51.4844],[52.9705,51.4688],[52.9366,51.4812],[52.9165,51.4829],[52.9258,51.4926],[52.9112,51.4963],[52.9043,51.4775],[52.8906,51.4819],[52.8772,51.475],[52.8645,51.4817],[52.8701,51.4878],[52.9,51.5012],[52.8882,51.5067],[52.8604,51.4915],[52.851,51.4924],[52.8451,51.5036],[52.8258,51.4993],[52.8019,51.5059],[52.7958,51.4998],[52.7718,51.5035],[52.7448,51.4853],[52.7203,51.4859],[52.6981,51.4778],[52.6813,51.4797],[52.6762,51.4682],[52.6624,51.4715],[52.6645,51.4872],[52.6477,51.4885],[52.6355,51.4626],[52.6254,51.4737],[52.6053,51.4564],[52.5956,51.4533],[52.5833,51.4603],[52.5969,51.469],[52.5813,51.4765],[52.5654,51.4636],[52.5644,51.4537],[52.5424,51.4616],[52.539,51.4736],[52.5569,51.4806],[52.5464,51.4928],[52.5303,51.4994],[52.5189,51.4985],[52.5049,51.5059],[52.5088,51.5226],[52.5047,51.5451],[52.4971,51.5483],[52.4629,51.6061],[52.4504,51.6233],[52.4334,51.6287],[52.4161,51.6401],[52.3844,51.6832],[52.3762,51.7175],[52.3802,51.7179],[52.3628,51.7725],[52.3594,51.7761],[52.3195,51.7663],[52.3348,51.7432],[52.2387,51.7238],[52.2334,51.7358],[52.1816,51.7334],[52.1767,51.7266],[52.1746,51.6875],[52.1617,51.6866],[52.0901,51.6584],[52.0747,51.674],[52.059,51.6682],[51.999,51.6672],[51.9996,51.6834],[51.8941,51.6834],[51.8941,51.6742],[51.8566,51.6738],[51.8647,51.6608],[51.8596,51.6498],[51.844,51.6494],[51.8234,51.6357],[51.8171,51.624],[51.7852,51.6017],[51.7927,51.5878],[51.7705,51.5832],[51.8136,51.497],[51.7307,51.4808],[51.7387,51.4652],[51.6558,51.4486],[51.6408,51.4767],[51.6298,51.475],[51.6429,51.5014],[51.6571,51.5051],[51.64,51.5385],[51.6128,51.5334],[51.6041,51.5508],[51.5768,51.5455],[51.5851,51.5284],[51.5569,51.5231],[51.5661,51.5058],[51.4657,51.4854],[51.4315,51.4749],[51.3802,51.4762],[51.38,51.4858],[51.2865,51.4878],[51.2856,51.5319],[51.2477,51.5252],[51.2452,51.556],[51.2404,51.5631],[51.3803,51.5634],[51.3802,51.6412],[51.3037,51.6411],[51.2721,51.6849],[51.2151,51.6821],[51.2038,51.6674],[51.178,51.6688],[51.1271,51.6761],[51.0846,51.6664],[51.0617,51.672],[51.0567,51.6806],[51.0432,51.683],[51.0219,51.6797],[51.011,51.6733],[50.9788,51.6756],[50.958,51.68],[50.8936,51.6814],[50.8884,51.7041],[50.8714,51.7535],[50.7682,51.773],[50.7682,51.7147],[50.7874,51.6848],[50.8109,51.6686],[50.8326,51.6492],[50.8126,51.6492],[50.812,51.585],[50.7667,51.5856],[50.7677,51.5748],[50.6789,51.5745],[50.6821,51.5857],[50.698,51.5938],[50.7339,51.6062],[50.7317,51.6285],[50.636,51.6292],[50.6359,51.6431],[50.625,51.6468],[50.5852,51.6458],[50.5867,51.5906],[50.5673,51.5883],[50.5512,51.6009],[50.5377,51.589],[50.5378,51.5101],[50.5474,51.4933],[50.5554,51.4892],[50.5559,51.4727],[50.5469,51.465],[50.498,51.4659],[50.4969,51.4277],[50.3718,51.4278],[50.3892,51.4096],[50.4038,51.4043],[50.3382,51.382],[50.3731,51.3326],[50.2446,51.281],[50.0383,51.251],[50.0069,51.2429],[49.911,51.201],[49.8477,51.1546],[49.8083,51.13],[49.7762,51.1072],[49.6565,51.1092],[49.5544,51.11],[49.4903,51.0985],[49.4547,51.1256],[49.4401,51.1116],[49.4304,51.0899],[49.3928,51.0901],[49.3964,51.0489],[49.3385,50.9871],[49.3746,50.981],[49.4081,50.961],[49.4152,50.9338],[49.4293,50.92],[49.4283,50.9063],[49.4427,50.8941],[49.4416,50.8701],[49.4199,50.8489],[49.2623,50.823],[49.2172,50.799],[49.1262,50.7846],[49.1052,50.7691],[49.0093,50.6822],[48.9993,50.6875],[48.954,50.651],[48.8147,50.5955],[48.7786,50.6072],[48.7385,50.61],[48.7313,50.6043],[48.6892,50.6123],[48.6675,50.6321],[48.6489,50.6451],[48.6062,50.6619],[48.5706,50.6324],[48.601,50.6139],[48.6307,50.6103],[48.6518,50.6015],[48.649,50.5856],[48.666,50.5725],[48.656,50.5567],[48.6613,50.5448],[48.6589,50.5278],[48.6661,50.4982],[48.6783,50.4606],[48.7324,50.2572],[48.7942,50.2049],[48.809,50.1704],[48.7637,50.0979],[48.7806,50.1008],[48.7931,50.0971],[48.822,50.0962],[48.848,50.0913],[48.8634,50.0778],[48.8648,50.0579],[48.8818,50.0393],[48.8814,50.03],[48.9034,50.0184],[48.7878,49.9487],[48.7456,49.9213],[48.659,49.8971],[48.582,49.8736],[48.5014,49.8479],[48.4503,49.8351],[48.4421,49.8018],[48.4284,49.8061],[48.4088,49.8203],[48.3946,49.8363],[48.3748,49.8339],[48.3595,49.8248],[48.3443,49.8365],[48.3425,49.8494],[48.3248,49.8536],[48.3131,49.8728],[48.2925,49.8598],[48.2693,49.8602],[48.2399,49.8698],[48.2263,49.8787],[48.235,49.8947],[48.2206,49.9089],[48.2171,49.9195],[48.1991,49.9303],[48.1929,49.9436],[48.1737,49.9474],[48.1615,49.9563],[48.1569,49.9798],[48.1332,49.9968],[48.1299,50.0285],[48.1239,50.0526],[48.1143,50.0594],[48.1088,50.0849],[48.0962,50.0993],[48.073,50.1046],[48.0598,50.1123],[48.0474,50.1128],[48.0504,50.1264],[48.036,50.1361],[48.0092,50.1423],[47.9985,50.1565],[47.999,50.1703],[47.9857,50.1774],[47.9876,50.186],[47.9668,50.1947],[47.9504,50.2136],[47.9521,50.2276],[47.9366,50.2337],[47.9328,50.2477],[47.9124,50.2531],[47.8858,50.2687],[47.851,50.3035],[47.8372,50.3106],[47.8227,50.3121],[47.8286,50.3296],[47.7913,50.3329],[47.7821,50.3394],[47.7657,50.3395],[47.7609,50.3476],[47.7463,50.3541],[47.7397,50.3662],[47.7439,50.3777],[47.7307,50.3865],[47.7023,50.391],[47.6637,50.4084],[47.6622,50.4169],[47.6308,50.4436],[47.637,50.4556],[47.6112,50.4643],[47.542,50.4608],[47.5078,50.4341],[47.473,50.4203],[47.4187,50.3651],[47.4074,50.3375],[47.3797,50.3281],[47.3737,50.3324],[47.339,50.3292],[47.3054,50.3039],[47.292,50.2837],[47.302,50.2621],[47.3351,50.238],[47.2573,50.1918],[47.3176,50.152],[47.3534,50.0943],[47.3169,50.0609],[47.1825,49.935],[46.9574,49.8713],[46.9295,49.8747],[46.9026,49.8638],[46.8702,49.743],[46.8579,49.6436],[46.8443,49.6065],[46.8372,49.6066],[46.8389,49.5657],[46.8293,49.5656],[46.8059,49.4293],[46.7822,49.3399],[46.8376,49.3194],[46.9146,49.2829],[46.9962,49.2324],[47.0513,49.1656],[47.0287,49.0892],[46.972,49.0273],[46.8926,48.9821],[46.7917,48.9519],[46.7792,48.9514],[46.6888,48.7887],[46.622,48.6677],[46.4932,48.4326],[46.6459,48.3851],[46.6776,48.3905],[46.7476,48.3535],[46.8893,48.3277],[46.9086,48.3196],[46.9321,48.3169],[47.123,48.2685],[47.103,48.2105],[47.1133,48.1756],[47.1248,48.1581],[47.0909,48.1032],[47.2111,48.0822],[47.2005,48.0549],[47.1588,48.0611],[47.1486,48.0364],[47.0499,47.9978],[47.1008,47.9278],[47.181,47.8539],[47.1218,47.8317],[47.1944,47.7608],[47.2143,47.753],[47.3852,47.6813],[47.4119,47.7633],[47.4153,47.8383],[47.6523,47.758],[47.8664,47.7555],[47.9626,47.7515],[48.0282,47.763],[48.1117,47.7449],[48.2094,47.6916],[48.3189,47.5514],[48.3953,47.476],[48.4516,47.4117],[48.5194,47.4118],[48.6002,47.2785],[48.7102,47.0958],[48.9153,46.8806],[48.996,46.7431],[48.92,46.6934],[48.7506,46.6855],[48.7133,46.7209],[48.6764,46.7134],[48.6738,46.7208],[48.6439,46.731],[48.6284,46.708],[48.6159,46.705],[48.6002,46.7144],[48.5487,46.7111],[48.5353,46.7063],[48.5437,46.6919],[48.553,46.6885],[48.5072,46.6758],[48.4779,46.6706],[48.4965,46.6588],[48.5183,46.6496],[48.5393,46.6493],[48.5603,46.6419],[48.552,46.6296],[48.5519,46.6182],[48.5737,46.6065],[48.5967,46.6089],[48.6014,46.6004],[48.5775,46.5963],[48.5574,46.5858],[48.545,46.5633],[48.5498,46.5562],[48.5771,46.5606],[48.5961,46.5573],[48.629,46.5617],[48.6682,46.5558],[48.7024,46.5631],[48.7262,46.5539],[48.7482,46.5503],[48.769,46.5392],[48.788,46.5409],[48.7919,46.5184],[48.8146,46.4959],[48.8197,46.4854],[48.8381,46.4774],[48.8787,46.4816],[48.8856,46.4782],[48.912,46.4507],[48.9362,46.4458],[48.9481,46.4373],[48.9718,46.4357],[49.0018,46.4276],[49.0261,46.4148],[49.0449,46.3966],[49.0634,46.3912],[49.0839,46.3901],[49.1045,46.385],[49.1239,46.3899],[49.145,46.3823],[49.1627,46.3836],[49.1927,46.3689],[49.2626,46.2942],[49.5067,46.1933],[49.545,46.18],[49.6,46.1767],[49.7017,46.1867],[49.7317,46.1567],[49.7783,46.1183],[49.8861,46.0458],[49.9404,46.0676],[49.9673,46.081],[49.9994,46.1045],[50.0209,46.129],[50.0365,46.1615],[50.056,46.2286],[50.0599,46.2503],[50.0861,46.4326],[50.1468,46.4773],[50.3301,46.5507],[50.6367,46.6509],[50.6985,46.6737],[50.8125,46.7305],[51.1472,46.8096],[51.1997,46.8274],[51.2385,46.85],[51.263,46.8497],[51.3854,46.8393],[51.4489,46.6987],[51.4704,46.6661],[51.4873,46.6499],[51.5105,46.6337],[51.5371,46.6204],[51.5666,46.6102],[51.6043,46.6026],[51.7191,46.5875],[51.742,46.5854],[51.775,46.5856],[51.8381,46.5947],[52.1321,46.6404],[52.2053,46.6223],[52.2583,46.6135],[52.3157,46.6125],[52.364,46.6197],[52.4078,46.6336],[52.4352,46.645],[52.6521,46.7067],[52.7985,46.6054],[52.741,46.4226],[52.7364,46.3929],[52.7403,46.366],[52.7838,46.216],[52.7515,46.0957],[52.6754,45.8113],[52.6067,45.7754],[52.568,45.7493],[52.5415,45.7197],[52.4719,45.6078],[52.2904,45.5524],[52.1557,45.5345],[51.8197,45.5882],[51.7786,45.5936],[51.73,45.5927],[51.6984,45.5877],[51.4065,45.5232],[51.3424,45.507],[51.3038,45.4887],[51.2692,45.4626],[51.1641,45.3644],[51.1419,45.3405],[51.0898,45.2737],[51.0786,45.264],[50.8716,45.1156],[50.7077,45.0808],[50.4106,45.1856],[50.3635,45.1949],[50.3144,45.1983],[50.0741,45.1936],[50.0171,45.1869],[49.9619,45.1723],[49.8831,45.1344],[49.8472,45.0947],[49.8256,45.0505],[49.8164,45.0234],[49.8083,44.9753],[49.8154,44.9208],[49.8225,44.901],[49.8586,44.8343],[49.8714,44.8162],[49.9248,44.7588],[50.0336,44.5495],[50.0447,44.4725],[50.0502,44.3864],[50.0574,44.3538],[50.0775,44.3169],[50.1032,44.2836],[50.1227,44.2645],[50.1591,44.2407],[50.2255,44.207],[50.3103,44.1739],[50.3514,44.1634],[50.4101,44.1548],[50.5488,44.1438],[50.7003,43.9603],[50.8594,43.7285],[50.9509,43.6072],[50.9892,43.5595],[51.0968,43.4508],[51.082,43.2281],[51.0722,43.1798],[51.071,43.1607],[51.0776,43.1232],[51.1034,43.0789],[51.1326,43.0515],[51.1602,43.034],[51.2025,43.0162],[51.2623,43.0039],[51.5578,42.9675],[51.6356,42.8935],[51.6749,42.8334],[51.7371,42.7574],[51.767,42.7302],[51.7999,42.7105],[51.8365,42.6959],[51.8876,42.6854],[52.1954,42.6508],[52.3928,42.6018],[52.4406,42.4697],[52.2891,42.2624],[52.2586,42.2122],[52.2491,42.1918],[52.2353,42.1492],[52.229,42.1171],[52.2263,42.0889],[52.2293,42.0632],[52.2405,42.0137],[52.2472,41.7722],[52.2497,41.7523],[52.2591,41.7244],[52.267,41.6143],[52.45,41.762],[52.4968,41.7973],[52.5846,41.857],[52.7191,41.9489],[52.9343,42.0928],[52.9848,42.1212],[53.0586,42.1419],[53.2352,42.1942],[53.275,42.2051],[53.406,42.2429],[53.5706,42.2889],[53.6654,42.3035],[53.704,42.308],[53.8151,42.324],[53.9085,42.3358],[54.1505,42.3686],[54.1662,42.3723],[54.2178,42.3791],[54.2431,42.3635],[54.3927,42.2782],[54.4522,42.2432],[54.6834,42.1081],[54.7795,42.0525],[54.8176,42.0183],[54.8919,41.9595],[54.9289,41.9283],[54.9521,41.9063],[54.952,41.8796],[54.9481,41.8572],[54.95,41.8332],[54.964,41.8102],[54.9992,41.7811],[55.0329,41.7426],[55.0462,41.7235],[55.0662,41.6993],[55.0781,41.6815],[55.1023,41.6389],[55.1155,41.6112],[55.1237,41.6004],[55.1372,41.5916],[55.1581,41.5702],[55.1794,41.5435],[55.2114,41.5146],[55.2168,41.5042],[55.2401,41.472],[55.2684,41.438],[55.3155,41.3909],[55.3453,41.3743],[55.3497,41.3629],[55.3832,41.34],[55.3953,41.3385],[55.4001,41.3201],[55.4152,41.3107],[55.4101,41.3031],[55.4147,41.2932],[55.4393,41.2934],[55.4515,41.2865],[55.4482,41.2753],[55.4553,41.2671],[55.4723,41.2717],[55.4824,41.2612],[55.4996,41.2516],[55.5243,41.258],[55.5373,41.2566],[55.5537,41.2669],[55.5546,41.2825],[55.5677,41.2887],[55.5824,41.276],[55.5957,41.2765],[55.6068,41.2628],[55.613,41.2704],[55.6356,41.2828],[55.6493,41.277],[55.6577,41.2849],[55.6813,41.2888],[55.7062,41.2843],[55.7133,41.2785],[55.728,41.2929],[55.7433,41.3021],[55.7617,41.2956],[55.7738,41.2841],[55.8117,41.2783],[55.8164,41.2972],[55.832,41.305],[55.8398,41.3139],[55.8707,41.3241],[55.8767,41.3318],[55.972,41.3258],[55.9986,41.3222],[55.999,41.644],[55.999,41.9494],[55.999,42.5655],[55.9989,43.7533],[56.0005,44.4529],[55.9996,44.7888],[55.9989,45.0001],[56.3577,45.0863],[56.653,45.1559],[57.0181,45.2412],[57.2259,45.2889],[57.449,45.3395],[57.6863,45.3931],[57.9976,45.4622],[58.1718,45.5005],[58.4451,45.5599],[58.5879,45.5907],[58.9903,45.3694],[59.0973,45.3218],[59.8449,44.9844],[60.5838,44.6418],[60.8731,44.4807],[61.0669,44.3717],[61.1076,44.3605],[61.1381,44.2248],[61.4254,43.9995],[61.928,43.572],[62.0041,43.5054],[62.0867,43.5094],[62.2425,43.5186],[63.3491,43.6505],[63.8576,43.5993],[64.5349,43.5707],[64.7231,43.6494],[64.9323,43.7354],[65.0022,43.7154],[65.1849,43.4952],[65.4955,43.3329],[65.5321,43.3151],[65.5593,43.2895],[65.6439,43.1554],[65.7418,42.9998],[65.8442,42.8583],[66.0967,42.9381],[66.095,42.5662],[66.0707,42.3379],[66.0019,42.3607],[65.9987,41.9372],[66.5331,41.8769],[66.6067,41.4938],[66.6454,41.3477],[66.7092,41.1425],[66.9996,41.1408],[67.0157,41.1374],[67.3129,41.1348],[67.3651,41.127],[67.5696,41.1674],[67.6852,41.1709],[67.7351,41.182],[67.8133,41.1574],[67.8667,41.1355],[67.8918,41.1522],[67.9655,41.149],[67.987,41.0925],[67.9842,41.0659],[67.9833,41.0249],[68.0204,41.0205],[68.0236,41.0367],[68.0372,41.0435],[68.0517,41.0418],[68.0639,41.0719],[68.0713,41.0801],[68.0851,41.0802],[68.1013,41.0678],[68.1123,41.0668],[68.1188,41.047],[68.1261,41.0449],[68.127,41.0323],[68.1108,41.0363],[68.0884,41.0307],[68.0555,41.0092],[68.068,41.008],[68.0823,41.0013],[68.074,40.9861],[68.0879,40.9701],[68.0757,40.9606],[68.0631,40.9456],[68.0914,40.942],[68.0956,40.936],[68.0887,40.9256],[68.0731,40.9247],[68.0725,40.9168],[68.0402,40.9077],[68.0126,40.8906],[68.0061,40.8607],[67.9728,40.8619],[67.9717,40.851],[67.9816,40.8405],[67.9775,40.8312],[68.0242,40.8005],[68.0753,40.7901],[68.1587,40.7251],[68.2174,40.6877],[68.2969,40.6569],[68.3711,40.6174],[68.4111,40.6147],[68.4371,40.5964],[68.4687,40.5886],[68.4815,40.571],[68.5022,40.5797],[68.5237,40.5811],[68.5631,40.5792],[68.5817,40.5687],[68.6105,40.5771],[68.6412,40.5995],[68.6621,40.5992],[68.6519,40.6141],[68.6222,40.6303],[68.6425,40.6383],[68.6478,40.6494],[68.6487,40.6763],[68.6438,40.6941],[68.6189,40.6979],[68.6091,40.7078],[68.5839,40.7091],[68.5859,40.7798],[68.5735,40.7908],[68.5624,40.8057],[68.5625,40.8417],[68.5647,40.8491],[68.585,40.8572],[68.5905,40.8653],[68.5862,40.8862],[68.5767,40.8972],[68.5821,40.925],[68.5587,40.938],[68.5487,40.9469],[68.5178,40.9425],[68.517,40.9566],[68.5093,40.9729],[68.4973,40.9791],[68.5044,40.9999],[68.5265,41.0203],[68.5333,41.0144],[68.5598,41.0072],[68.5735,41.0138],[68.5895,41.0288],[68.6074,41.0305],[68.6094,41.0119],[68.6285,40.9973],[68.6622,40.9949],[68.6732,40.9884],[68.6704,40.9809],[68.6563,40.976],[68.6334,40.9733],[68.6269,40.9661],[68.6354,40.9501],[68.6437,40.9429],[68.6555,40.9464],[68.6657,40.9572],[68.6977,40.9673],[68.7114,40.9643],[68.7286,40.9697],[68.7548,40.9943],[68.7608,41.0067],[68.7547,41.0119],[68.7421,41.006],[68.7137,41.0359],[68.722,41.0503],[68.8033,41.1154],[68.8358,41.1334],[68.8597,41.1439],[68.8818,41.1596],[68.9136,41.1735],[68.9158,41.1823],[68.9319,41.1828],[68.9378,41.191],[68.9866,41.2109],[68.9973,41.2251],[69.0114,41.2276],[69.0235,41.2245],[69.0293,41.2393],[69.021,41.2459],[69.0359,41.2524],[69.0383,41.2662],[69.0171,41.2734],[69.0139,41.289],[69.0183,41.2982],[69.0376,41.3016],[69.045,41.31],[69.0396,41.3274],[69.0467,41.3495],[69.0251,41.3514],[69.0214,41.3555],[69.041,41.3661],[69.0497,41.3651],[69.079,41.3771],[69.0966,41.3586],[69.1054,41.3828],[69.1161,41.3923],[69.1493,41.3934],[69.1552,41.3866],[69.1691,41.4002],[69.1594,41.425],[69.1619,41.4332],[69.1946,41.4543],[69.2274,41.4628],[69.2349,41.4586],[69.2501,41.4663],[69.2624,41.4527],[69.2766,41.4505],[69.2871,41.4416],[69.3012,41.4378],[69.3168,41.4428],[69.3374,41.4591],[69.36,41.4695],[69.3799,41.4654],[69.4049,41.4696],[69.4165,41.4634],[69.4518,41.4625],[69.4606,41.4674],[69.4546,41.4846],[69.4415,41.4879],[69.4244,41.4985],[69.4003,41.5032],[69.3977,41.507],[69.4067,41.5242],[69.4277,41.5407],[69.4451,41.5632],[69.4609,41.5688],[69.4766,41.5589],[69.4812,41.551],[69.5014,41.5477],[69.527,41.5628],[69.5493,41.5697],[69.5377,41.5785],[69.5406,41.59],[69.5498,41.5918],[69.5639,41.6063],[69.5765,41.6295],[69.5914,41.6407],[69.6049,41.6464],[69.6179,41.6633],[69.6303,41.6634],[69.6494,41.6704],[69.6719,41.6698],[69.6824,41.6775],[69.6975,41.674],[69.7251,41.6879],[69.7271,41.6929],[69.7456,41.7008],[69.7731,41.6966],[69.8112,41.7082],[69.8391,41.7205],[69.8588,41.7173],[69.8697,41.7095],[69.8823,41.7066],[69.9014,41.7091],[69.9229,41.7172],[69.9247,41.7265],[69.939,41.7255],[69.9577,41.7338],[69.9573,41.7503],[69.9718,41.7565],[69.9727,41.7704],[69.9808,41.7808],[69.9999,41.7887],[69.9925,41.8003],[69.9992,41.8064],[70.0214,41.7959],[70.0265,41.7855],[70.0425,41.7757],[70.0514,41.7802],[70.051,41.7994],[70.0564,41.8043],[70.0769,41.8087],[70.0944,41.8223],[70.1041,41.8381],[70.118,41.8375],[70.1346,41.8443],[70.1468,41.8366],[70.1577,41.8495],[70.1759,41.8553],[70.1845,41.8644],[70.1811,41.8831],[70.1948,41.8909],[70.198,41.9053],[70.2078,41.9033],[70.2274,41.9172],[70.2235,41.9284],[70.2614,41.9543],[70.2681,41.9521],[70.2881,41.9579],[70.2911,41.9625],[70.3353,41.9747],[70.3369,41.9847],[70.3301,41.9971],[70.333,42.015],[70.3196,42.0368],[70.3328,42.0472],[70.3509,42.0508],[70.364,42.0584],[70.3725,42.0686],[70.4009,42.0694],[70.4229,42.0834],[70.4421,42.0918],[70.459,42.085],[70.4743,42.1014],[70.476,42.1093],[70.5014,42.0991],[70.5174,42.082],[70.5275,42.0852],[70.5396,42.0793],[70.5499,42.0677],[70.5585,42.043],[70.5487,42.035],[70.5594,42.0235],[70.5765,42.0204],[70.587,42.0102],[70.6066,42.0069],[70.6348,42.0206],[70.6516,42.0414],[70.6557,42.0614],[70.6662,42.0776],[70.6788,42.0884],[70.678,42.0935],[70.6872,42.1211],[70.7072,42.1303],[70.7146,42.1421],[70.7258,42.1478],[70.726,42.1573],[70.7376,42.1658],[70.7494,42.1658],[70.7535,42.176],[70.7397,42.1844],[70.7521,42.1938],[70.768,42.1936],[70.7706,42.201],[70.7984,42.2075],[70.8172,42.2033],[70.8316,42.1952],[70.8496,42.1976],[70.8546,42.2079],[70.8661,42.2118],[70.8837,42.2107],[70.9125,42.2352],[70.9348,42.2506],[70.9433,42.2635],[70.9336,42.2697],[70.9123,42.2612],[70.8909,42.2632],[70.8952,42.2727],[70.8917,42.2815],[70.8722,42.2916],[70.8652,42.2998],[70.8702,42.3102],[70.8656,42.3201],[70.8813,42.3275],[70.8866,42.3354],[70.8813,42.343],[70.8979,42.3664],[70.907,42.3649],[70.9305,42.3806],[70.9319,42.3899],[70.9553,42.4021],[70.9361,42.4117],[70.934,42.42],[70.9514,42.4303],[70.9663,42.4715],[70.9789,42.4876],[70.9817,42.4978],[71.0117,42.4905],[71.0755,42.4726],[71.089,42.4844],[71.044,42.534],[71.0004,42.5583],[71.0017,42.5855],[71.0117,42.5898],[71.0522,42.5996],[71.1013,42.5997],[71.1567,42.6052],[71.1603,42.5933],[71.1797,42.6104],[71.1776,42.6246],[71.1824,42.6366],[71.1818,42.6636],[71.178,42.6729],[71.2014,42.677],[71.231,42.6921],[71.2541,42.7219],[71.2667,42.727],[71.2652,42.7378],[71.2748,42.7418],[71.2743,42.7553],[71.2668,42.77],[71.29,42.7674],[71.2894,42.76],[71.3031,42.7558],[71.3131,42.7634],[71.3333,42.7558],[71.35,42.7664],[71.3695,42.762],[71.3813,42.798],[71.421,42.7965],[71.4667,42.7851],[71.4987,42.7952],[71.5086,42.7919],[71.5344,42.8015],[71.5418,42.8083],[71.5605,42.7841],[71.5689,42.7786],[71.5801,42.7854],[71.5922,42.7806],[71.5969,42.7729],[71.6119,42.7764],[71.6266,42.7857],[71.6506,42.793],[71.6819,42.8172],[71.6933,42.8184],[71.7066,42.8111],[71.7412,42.8138],[71.7532,42.8195],[71.7725,42.8166],[71.7806,42.8235],[71.809,42.8324],[71.8361,42.8386],[71.8636,42.8328],[71.9048,42.8198],[71.939,42.8141],[71.9541,42.7988],[71.9847,42.7841],[72.021,42.7734],[72.0377,42.7739],[72.0569,42.7689],[72.0886,42.7443],[72.1204,42.7365],[72.1451,42.7397],[72.1661,42.7544],[72.1911,42.7505],[72.232,42.7603],[72.282,42.7593],[72.3297,42.7424],[72.38,42.7278],[72.4018,42.7199],[72.4156,42.7102],[72.458,42.7041],[72.461,42.6982],[72.4836,42.6899],[72.4984,42.6742],[72.516,42.673],[72.5209,42.6837],[72.543,42.6786],[72.5638,42.682],[72.5721,42.6865],[72.5912,42.6871],[72.6177,42.6789],[72.6519,42.6735],[72.6572,42.6648],[72.6947,42.6504],[72.7006,42.6523],[72.7198,42.6431],[72.7367,42.6466],[72.7593,42.6308],[72.7684,42.6132],[72.7819,42.6067],[72.7834,42.5983],[72.7999,42.5887],[72.8095,42.5702],[72.8254,42.5586],[72.8378,42.5548],[72.8624,42.5557],[72.8698,42.5591],[72.8919,42.5411],[72.9158,42.535],[72.9375,42.5373],[72.9484,42.5335],[72.971,42.5337],[72.9805,42.53],[73.022,42.5391],[73.0506,42.5333],[73.0662,42.5342],[73.0837,42.542],[73.0984,42.5385],[73.1287,42.5385],[73.1445,42.5309],[73.1515,42.5336],[73.1701,42.5283],[73.2048,42.5221],[73.2263,42.5158],[73.2336,42.5232],[73.2554,42.5191],[73.2793,42.511],[73.3087,42.5107],[73.3156,42.505],[73.3113,42.4953],[73.31,42.477],[73.3133,42.4627],[73.3058,42.4512],[73.3122,42.4414],[73.3585,42.4258],[73.3764,42.4263],[73.381,42.4218],[73.4046,42.4256],[73.4373,42.4232],[73.4432,42.425],[73.4664,42.4096],[73.5116,42.418],[73.5208,42.4218],[73.5167,42.4354],[73.4972,42.4595],[73.4781,42.463],[73.4672,42.4751],[73.4611,42.4892],[73.4417,42.5061],[73.4333,42.5183],[73.4342,42.5301],[73.4256,42.5434],[73.4282,42.5539],[73.4175,42.5693],[73.4247,42.5822],[73.4275,42.5989],[73.4205,42.6149],[73.4237,42.6418],[73.4427,42.6643],[73.448,42.6783],[73.4456,42.6869],[73.4553,42.7024],[73.4663,42.7308],[73.5006,42.7658],[73.5098,42.8082],[73.5112,42.8519]]]},"properties":{"osm_id":"relation/214665","iso":"KZ","admin_level":2,"name_kk":"Қазақстан","name_ru":"Казахстан","name_en":"Kazakhstan","kind":"country"}}
]}