{"type":"FeatureCollection", "features": [
{"type":"Feature","geometry":{"type":"Point","coordinates":[53.6441851359173,47.55704634301174]},"properties":{"osm_id":"relation/214834","iso":"KZ-23","admin_level":4,"name_kk":"Атырау облысы","name_ru":"Атырауская область","name_en":"Atyrau Region","kind":"region"}},
{"type":"Feature","geometry":{"type":"Point","coordinates":[50.350356399368046,49.826480330975755]},"properties":{"osm_id":"relation/215441","iso":"KZ-27","admin_level":4,"name_kk":"Батыс Қазақстан облысы","name_ru":"Западно-Казахстанская область","name_en":"West Kazakhstan Region","kind":"region"}},
{"type":"Feature","geometry":{"type":"Point","coordinates":[58.07348563322919,48.51986184914304]},"properties":{"osm_id":"relation/215683","iso":"KZ-15","admin_level":4,"name_kk":"Ақтөбе облысы","name_ru":"Актюбинская область","name_en":"Aqtöbe Region","kind":"region"}},
{"type":"Feature","geometry":{"type":"Point","coordinates":[53.70340691409618,44.118910464163775]},"properties":{"osm_id":"relation/215686","iso":"KZ-47","admin_level":4,"name_kk":"Маңғыстау облысы","name_ru":"Мангистауская область","name_en":"Mangystau Region","kind":"region"}},
{"type":"Feature","geometry":{"type":"Point","coordinates":[84.3558952762535,49.028239808140086]},"properties":{"osm_id":"relation/215699","iso":"KZ-63","admin_level":4,"name_kk":"Шығыс Қазақстан облысы","name_ru":"Восточно-Казахстанская область","name_en":"East Kazakhstan Region","kind":"region"}},
{"type":"Feature","geometry":{"type":"Point","coordinates":[76.23100119665457,44.06215267258867]},"properties":{"osm_id":"relation/215718","iso":"KZ-19","admin_level":4,"name_kk":"Алматы облысы","name_ru":"Алматинская область","name_en":"Almaty Region","kind":"region"}},
{"type":"Feature","geometry":{"type":"Point","coordinates":[72.2042598886654,44.3801718130849]},"properties":{"osm_id":"relation/215722","iso":"KZ-31","admin_level":4,"name_kk":"Жамбыл облысы","name_ru":"Жамбылская область","name_en":"Jambyl Region","kind":"region"}},
{"type":"Feature","geometry":{"type":"Point","coordinates":[63.63342346676755,45.2491144772126]},"properties":{"osm_id":"relation/215727","iso":"KZ-43","admin_level":4,"name_kk":"Қызылорда облысы","name_ru":"Кызылординская область","name_en":"Kyzylorda Region","kind":"region"}},
{"type":"Feature","geometry":{"type":"Point","coordinates":[68.24784615689597,42.21625676372365]},"properties":{"osm_id":"relation/215739","iso":"KZ-61","admin_level":4,"name_kk":"Түркістан облысы","name_ru":"Туркестанская область","name_en":"Turkistan Region","kind":"region"}},
{"type":"Feature","geometry":{"type":"Point","coordinates":[69.84057019095934,51.8673761096831]},"properties":{"osm_id":"relation/215743","iso":"KZ-11","admin_level":4,"name_kk":"Ақмола облысы","name_ru":"Акмолинская область","name_en":"Akmola Region","kind":"region"}},
{"type":"Feature","geometry":{"type":"Point","coordinates":[69.32837598194328,54.44904516418544]},"properties":{"osm_id":"relation/215760","iso":"KZ-59","admin_level":4,"name_kk":"Солтүстік Қазақстан облысы","name_ru":"Северо-Казахстанская область","name_en":"North Kazakhstan Region","kind":"region"}},
{"type":"Feature","geometry":{"type":"Point","coordinates":[76.04211335358772,52.23708988716593]},"properties":{"osm_id":"relation/215772","iso":"KZ-55","admin_level":4,"name_kk":"Павлодар облысы","name_ru":"Павлодарская область","name_en":"Pavlodar Region","kind":"region"}},
{"type":"Feature","geometry":{"type":"Point","coordinates":[73.86190339193804,48.39301906048345]},"properties":{"osm_id":"relation/215776","iso":"KZ-35","admin_level":4,"name_kk":"Қарағанды облысы","name_ru":"Карагандинская область","name_en":"Karaganda Region","kind":"region"}},
{"type":"Feature","geometry":{"type":"Point","coordinates":[63.61888286737021,52.108451421985905]},"properties":{"osm_id":"relation/1288730","iso":"KZ-39","admin_level":4,"name_kk":"Қостанай облысы","name_ru":"Костанайская область","name_en":"Kostanay Region","kind":"region"}},
{"type":"Feature","geometry":{"type":"Point","coordinates":[76.92215836627135,43.22494546074931]},"properties":{"osm_id":"relation/2465058","iso":"KZ-75","admin_level":4,"name_kk":"Алматы","name_ru":"Алматы","name_en":"Almaty","kind":"city"}},
{"type":"Feature","geometry":{"type":"Point","coordinates":[71.4374703567292,51.138388985787756]},"properties":{"osm_id":"relation/3087155","iso":"KZ-71","admin_level":4,"name_kk":"Астана","name_ru":"Астана","name_en":"Astana","kind":"city"}},
{"type":"Feature","geometry":{"type":"Point","coordinates":[69.53363806065786,42.306473569769565]},"properties":{"osm_id":"relation/3389772","iso":"KZ-79","admin_level":4,"name_kk":"Шымкент","name_ru":"Шымкент","name_en":"Shymkent","kind":"city"}},
{"type":"Feature","geometry":{"type":"Point","coordinates":[79.84384816020518,48.79402247968372]},"properties":{"osm_id":"relation/14243026","iso":"KZ-10","admin_level":4,"name_kk":"Абай облысы","name_ru":"Абайская область","name_en":"Abay Region","kind":"region"}},
{"type":"Feature","geometry":{"type":"Point","coordinates":[78.55113150279013,45.49824939182781]},"properties":{"osm_id":"relation/14312169","iso":"KZ-33","admin_level":4,"name_kk":"Жетісу облысы","name_ru":"Жетысуская область","name_en":"Jetisu Region","kind":"region"}},
{"type":"Feature","geometry":{"type":"Point","coordinates":[67.9482036298493,47.596281020381]},"properties":{"osm_id":"relation/14312737","iso":"KZ-62","admin_level":4,"name_kk":"Ұлытау облысы","name_ru":"Улутауская область","name_en":"Ulytau Region","kind":"region"}}
]}